{"type":"FeatureCollection", "features":[
{"type":"Feature","geometry":{"type":"MultiLineString","coordinates":[[[-1.3309126999229193,42.992535112425685,897],[-1.3306973688304424,42.99273602664471,897.5999755859375],[-1.3306086044758558,42.99283082596958,898],[-1.330442475154996,42.99299335107207,899.4000244140625],[-1.330116419121623,42.99333717674017,899.7999877929688],[-1.3300863280892372,42.99336785450578,900],[-1.3300284929573536,42.993425438180566,900.4000244140625],[-1.3299144990742207,42.99353959970176,901.5999755859375],[-1.3298866711556911,42.993567092344165,901.7999877929688],[-1.3296495471149683,42.99380547367036,901.7999877929688],[-1.3293135166168213,42.99415114335716,901.5999755859375],[-1.329155433923006,42.994317188858986,902],[-1.3289998658001423,42.994483318179846,902.4000244140625],[-1.3289664220064878,42.99452053382993,902.7999877929688],[-1.3288975227624178,42.99459194764495,904],[-1.3288262765854597,42.99466378055513,905],[-1.3286115322262049,42.994872657582164,905.4000244140625],[-1.3284299802035093,42.99505580216646,906],[-1.328216241672635,42.99526861868799,906.2000122070312],[-1.3279228750616312,42.99558193422854,906.7999877929688],[-1.3278907723724842,42.99561705440283,907],[-1.3276692386716604,42.99584579654038,908],[-1.3274327851831913,42.9960882011801,908.2000122070312],[-1.3273032009601593,42.99621962942183,908.5999755859375],[-1.3272254168987274,42.99629573710263,908.7999877929688],[-1.3269735407084227,42.99656068906188,909.5999755859375],[-1.326906904578209,42.996627828106284,910.4000244140625],[-1.3268787413835526,42.99666127189994,910.7999877929688],[-1.3268395140767097,42.99669169820845,911],[-1.326694255694747,42.99683326855302,910.7999877929688],[-1.32642419077456,42.9971017409116,911.5999755859375],[-1.3260679598897696,42.997463420033455,911.4000244140625],[-1.3260020781308413,42.99753600731492,912],[-1.3257209490984678,42.997828451916575,913],[-1.325684990733862,42.99786482937634,913.4000244140625],[-1.3254468608647585,42.998116286471486,914.2000122070312],[-1.325413165614009,42.99815006554127,914.4000244140625],[-1.3251494709402323,42.998426081612706,915.2000122070312],[-1.325120721012354,42.998462626710534,915],[-1.3248873688280582,42.99870142713189,914.7999877929688],[-1.3247108459472656,42.998873172327876,915.5999755859375],[-1.324645970016718,42.998935617506504,916.2000122070312],[-1.3244657590985298,42.99911272712052,916.5999755859375],[-1.3242526911199093,42.99932881258428,916.4000244140625],[-1.3240509387105703,42.99953534267843,918],[-1.3240166567265987,42.9995696246624,918.4000244140625],[-1.3239152356982231,42.9996732249856,918.5999755859375],[-1.323783891275525,42.99980230629444,918.5999755859375],[-1.32356864400208,43.000023839995265,919],[-1.323511814698577,43.00008896738291,919.5999755859375],[-1.3234194461256266,43.00018762238324,920],[-1.323240827769041,43.000367330387235,920.5999755859375],[-1.3231737725436687,43.000441091135144,920.7999877929688],[-1.3230513129383326,43.00055131316185,920.5999755859375],[-1.322925416752696,43.000680981203914,921.2000122070312],[-1.3227972574532032,43.00080637447536,922],[-1.322541693225503,43.00106990151107,921.5999755859375],[-1.322316974401474,43.001289339736104,922.4000244140625],[-1.32205780595541,43.001555716618896,923],[-1.3220346719026566,43.001581029966474,923.4000244140625],[-1.3218915928155184,43.001734502613544,924.5999755859375],[-1.3216733280569315,43.00195704214275,924.4000244140625],[-1.3215853180736303,43.002040944993496,925.5999755859375],[-1.3213838171213865,43.00223967991769,926.7999877929688],[-1.3211406581103802,43.00248711369932,926.5999755859375],[-1.3209679909050465,43.0026503931731,926.7999877929688],[-1.3209026120603085,43.00271552056074,926.5999755859375],[-1.3208686653524637,43.002750808373094,926.5999755859375],[-1.3206178788095713,43.003003522753716,927.5999755859375],[-1.3205505721271038,43.00307552330196,928],[-1.3205183017998934,43.00311114639044,928],[-1.3202645815908909,43.003414403647184,928.5999755859375],[-1.3201827742159367,43.003518003970385,929],[-1.3200388569384813,43.003693437203765,929],[-1.3198373559862375,43.00393743440509,929.5999755859375],[-1.3196796923875809,43.00414077937603,930],[-1.3196074403822422,43.00425016321242,930.4000244140625],[-1.319482047110796,43.004432218149304,930.4000244140625],[-1.3194341864436865,43.00455333665013,931],[-1.3194232899695635,43.004593988880515,931],[-1.3194118905812502,43.00463363528252,931],[-1.319347182288766,43.004824575036764,931.5999755859375],[-1.3192907720804214,43.00505264662206,932.2000122070312],[-1.3192159216850996,43.0053527187556,932.2000122070312],[-1.3192068692296743,43.005420695990324,932.7999877929688],[-1.3191971462219954,43.00559788942337,933.4000244140625],[-1.3191941287368536,43.00590164959431,933.7999877929688],[-1.3191971462219954,43.005936685949564,934.2000122070312],[-1.3192061986774206,43.00614011473954,935.4000244140625],[-1.319209299981594,43.00617657601833,935.7999877929688],[-1.3192212861031294,43.00624513998628,936.4000244140625],[-1.3192398939281702,43.00646457821131,936.7999877929688],[-1.3192792050540447,43.00681980326772,937.2000122070312],[-1.3193172588944435,43.00716186873615,936.7999877929688],[-1.3193443324416876,43.00734819844365,937.5999755859375],[-1.3193541392683983,43.007418774068356,939],[-1.3193590007722378,43.007455402985215,939.7999877929688],[-1.3193659577518702,43.00749245099723,940.4000244140625],[-1.31941432133317,43.0078034196049,941.4000244140625],[-1.3194196857511997,43.00784004852176,941.5999755859375],[-1.3194197695702314,43.00793417729437,941.7999877929688],[-1.3194174226373434,43.007984049618244,942.2000122070312],[-1.3194244634360075,43.00801305100322,942],[-1.3194244634360075,43.00801305100322,941.7999877929688],[-1.3194244634360075,43.00801305100322,942.4000244140625],[-1.3194244634360075,43.00801305100322,942.2000122070312],[-1.3194244634360075,43.00801305100322,942.5999755859375],[-1.3194244634360075,43.00801305100322,942.5999755859375],[-1.3194244634360075,43.00801305100322,942.7999877929688],[-1.3194244634360075,43.00801305100322,942.7999877929688],[-1.3194244634360075,43.00801305100322,943],[-1.3194244634360075,43.00801305100322,942.7999877929688],[-1.3194244634360075,43.00801305100322,943.4000244140625],[-1.3194244634360075,43.00801305100322,943.7999877929688],[-1.3194244634360075,43.00801305100322,942.5999755859375],[-1.3194244634360075,43.00801305100322,942.5999755859375],[-1.3194244634360075,43.00801305100322,942],[-1.3194231223315,43.00801506265998,942],[-1.3194465916603804,43.00803182646632,942.2000122070312],[-1.319469977170229,43.00802872516215,942.5999755859375],[-1.3195140659809113,43.00798924639821,943.4000244140625],[-1.3195178378373384,43.00795320421457,943.2000122070312],[-1.319508869200945,43.007913725450635,943],[-1.3194771856069565,43.007776848971844,941.7999877929688],[-1.3194500282406807,43.00766386091709,941.4000244140625],[-1.319409878924489,43.00745381042361,940.2000122070312],[-1.3193862419575453,43.00729195587337,939.2000122070312],[-1.3193457573652267,43.00702524371445,937.7999877929688],[-1.319335112348199,43.00692977383733,937.5999755859375],[-1.3193080388009548,43.006740007549524,936.5999755859375],[-1.3192817196249962,43.00654026679695,935.7999877929688],[-1.3192679733037949,43.006438007578254,935.2000122070312],[-1.319254981353879,43.00633675418794,934.7999877929688],[-1.3192471861839294,43.006237763911486,934],[-1.3192317634820938,43.005943559110165,933],[-1.3192284107208252,43.0057483445853,933],[-1.319272331893444,43.00534517504275,932.4000244140625],[-1.319293873384595,43.00524710677564,932.4000244140625],[-1.3193897623568773,43.00487025640905,932],[-1.319475593045354,43.004595413804054,931.7999877929688],[-1.3196865655481815,43.0041940882802,932],[-1.3200565427541733,43.003728138282895,931.7999877929688],[-1.320382347330451,43.003343576565385,930.7999877929688],[-1.3205604627728462,43.00314459018409,929.4000244140625],[-1.3208029512315989,43.002870166674256,928.4000244140625],[-1.3210598565638065,43.00260487943888,927.4000244140625],[-1.321187261492014,43.00247588194907,926.7999877929688],[-1.3213160913437605,43.00235032103956,926],[-1.321565369144082,43.00209341570735,925],[-1.3218203466385603,43.00183014012873,924.5999755859375],[-1.32202067412436,43.0016297288239,924],[-1.3222838658839464,43.00136242993176,922.7999877929688],[-1.3224153779447079,43.001226391643286,922.2000122070312],[-1.322602378204465,43.00102933309972,921.5999755859375],[-1.322789378464222,43.00084660761058,920.5999755859375],[-1.3228478841483593,43.00078843720257,920],[-1.322904797270894,43.00073051825166,919.5999755859375],[-1.3231860101222992,43.000455340370536,919.7999877929688],[-1.3234559074044228,43.00017840228975,919.5999755859375],[-1.3236214499920607,43.00001193769276,918.7999877929688],[-1.323673501610756,42.999956868588924,918.4000244140625],[-1.3238842226564884,42.999736005440354,918],[-1.323939124122262,42.99967967905104,918],[-1.3243750669062138,42.99923208542168,917.7999877929688],[-1.3245317246764898,42.99906251952052,917.4000244140625],[-1.3248036336153746,42.99877912737429,916.2000122070312],[-1.3249199744313955,42.998659601435065,915.7999877929688],[-1.3250963296741247,42.99848634749651,915.2000122070312],[-1.3252671528607607,42.998310243710876,914.2000122070312],[-1.325325071811676,42.998252995312214,913.7999877929688],[-1.325683481991291,42.997898356989026,913],[-1.3257419038563967,42.997837755829096,913],[-1.3258025888353586,42.9977753944695,912.5999755859375],[-1.3261754158884287,42.997402902692556,912.4000244140625],[-1.3262361846864223,42.99733861349523,912],[-1.3263573870062828,42.99721187911928,911.5999755859375],[-1.3266849517822266,42.99688548780978,911],[-1.3268779031932354,42.99668474122882,910.4000244140625],[-1.327144866809249,42.99641425721347,909.2000122070312],[-1.3273436017334461,42.99621133133769,907.7999877929688],[-1.3277853280305862,42.99575066193938,907.2000122070312],[-1.3278518803417683,42.99568712711334,906.5999755859375],[-1.3280350249260664,42.99549727700651,905.4000244140625],[-1.328349681571126,42.99518371000886,905.2000122070312],[-1.3287875521928072,42.99473670311272,904],[-1.3288514222949743,42.99467274919152,903.5999755859375],[-1.3289143703877926,42.99460804089904,903],[-1.3291099201887846,42.99441349692643,901.7999877929688],[-1.3295632973313332,42.993947714567184,902.4000244140625],[-1.3299372978508472,42.993571031838655,901.7999877929688],[-1.3299931213259697,42.99351177178323,901.2000122070312],[-1.3300500344485044,42.993453014642,900.7999877929688],[-1.3303501904010773,42.99315528944135,899.5999755859375],[-1.330531071871519,42.992968540638685,898.2000122070312],[-1.3308506738394499,42.99264449626207,897.2000122070312],[-1.331158708781004,42.99239211715758,895.7999877929688],[-1.3313467986881733,42.99228860065341,895],[-1.3314462918788195,42.992241494357586,894.7999877929688],[-1.3316473737359047,42.99215080216527,894],[-1.331750974059105,42.99210822209716,893.7999877929688],[-1.3321419060230255,42.99194200895727,892.4000244140625],[-1.3323200214654207,42.99186388961971,892.4000244140625],[-1.3326449040323496,42.99172131344676,893.2000122070312],[-1.3327893242239952,42.9916603770107,893.2000122070312],[-1.3329203333705664,42.99160656519234,893.4000244140625],[-1.3332209922373295,42.99147438257933,893.5999755859375],[-1.3336376566439867,42.99129316583276,894.4000244140625],[-1.3337159436196089,42.991260727867484,894.4000244140625],[-1.3338235672563314,42.99121571704745,894.5999755859375],[-1.3338877726346254,42.99118855968118,894.5999755859375],[-1.333920294418931,42.991174310445786,894.7999877929688],[-1.3340816460549831,42.991105327382684,894.7999877929688],[-1.3340966496616602,42.991099040955305,894.7999877929688],[-1.3341237232089043,42.99108764156699,895],[-1.3341237232089043,42.99108764156699,895],[-1.3341237232089043,42.99108764156699,895],[-1.3341237232089043,42.99108764156699,895],[-1.3341237232089043,42.99108764156699,895],[-1.3341447617858648,42.99105671234429,895.2000122070312],[-1.3341839890927076,42.99103315919638,895.5999755859375],[-1.3343002460896969,42.99097750335932,895.2000122070312],[-1.334403846412897,42.99093006178737,894.7999877929688],[-1.334518762305379,42.99087926745415,894.5999755859375],[-1.3345515355467796,42.99085730686784,894.4000244140625],[-1.3347097858786583,42.990784384310246,894.4000244140625],[-1.3347721472382545,42.99082067795098,895],[-1.3347957003861666,42.99084682948887,895.2000122070312],[-1.334967277944088,42.99100834876299,893.2000122070312],[-1.3350474927574396,42.99105822108686,892.2000122070312],[-1.3351432140916586,42.991104908287525,890.7999877929688],[-1.3351942598819733,42.99115695990622,889.5999755859375],[-1.3351900689303875,42.99116777256131,889],[-1.3351868838071823,42.99116333015263,889.2000122070312],[-1.3351866323500872,42.991173304617405,889.2000122070312],[-1.3351751491427422,42.99118143506348,889.2000122070312],[-1.335173137485981,42.99117313697934,889.2000122070312],[-1.3351712934672832,42.991182105615735,889.2000122070312],[-1.3351639173924923,42.99119660630822,889],[-1.3351025618612766,42.99121999181807,889.2000122070312],[-1.3350885640829802,42.99122761934996,889.2000122070312],[-1.3350023981183767,42.99126148223877,889.7999877929688],[-1.3349562138319016,42.99127765931189,890],[-1.3349159806966782,42.991303727030754,890.4000244140625],[-1.3349159806966782,42.991303727030754,890.2000122070312],[-1.3349160645157099,42.99130196683109,890.2000122070312],[-1.3349059224128723,42.991309678182006,890]]]},"properties":{"name":"Espinal, Ureta y Cueva Lezestali desde Burguete","type":"e_bike_fitness"}}
]}
