{
"type": "FeatureCollection",
"name": "tracks",
"features": [
{ "type": "Feature", "properties": { "name": "Sendero del Dolmen de Mendiaundi y vuelta por Tres Hayas", "type": "e_bike_fitness" }, "geometry": { "type": "LineString", "coordinates": [ [ -1.3330309, 42.9899317 ], [ -1.3330308, 42.9899317 ], [ -1.3330334, 42.989965 ], [ -1.3331073, 42.9900255 ], [ -1.3331328, 42.9900423 ], [ -1.3331734, 42.9900583 ], [ -1.3332145, 42.9900614 ], [ -1.3333178, 42.9900114 ], [ -1.3335257, 42.9899258 ], [ -1.3336703, 42.9899765 ], [ -1.3338698, 42.9900895 ], [ -1.3338995, 42.990106 ], [ -1.3339292, 42.9901235 ], [ -1.3341982, 42.9902892 ], [ -1.3343323, 42.9903696 ], [ -1.334367, 42.9903891 ], [ -1.334436, 42.9904306 ], [ -1.3347453, 42.9906368 ], [ -1.3347793, 42.9906986 ], [ -1.3347683, 42.9907296 ], [ -1.3347679, 42.9907939 ], [ -1.3348066, 42.9908494 ], [ -1.3349421, 42.9909782 ], [ -1.3350206, 42.9910471 ], [ -1.3350792, 42.9910632 ], [ -1.335148, 42.9910559 ], [ -1.3352179, 42.9910335 ], [ -1.3352962, 42.991004 ], [ -1.3353881, 42.9909797 ], [ -1.3354955, 42.9909795 ], [ -1.335603, 42.9909932 ], [ -1.3357203, 42.9909924 ], [ -1.3358335, 42.990967 ], [ -1.3360273, 42.9908723 ], [ -1.3361117, 42.9908163 ], [ -1.3363841, 42.990653 ], [ -1.3365601, 42.9905499 ], [ -1.3366589, 42.9905238 ], [ -1.3367594, 42.9905214 ], [ -1.3368644, 42.9905401 ], [ -1.3369655, 42.9905723 ], [ -1.3370678, 42.9906079 ], [ -1.3372688, 42.9906732 ], [ -1.3378284, 42.9908356 ], [ -1.337915, 42.990856 ], [ -1.3383235, 42.9909034 ], [ -1.33855, 42.9909186 ], [ -1.3389084, 42.9909289 ], [ -1.3391547, 42.99093 ], [ -1.3392622, 42.9909435 ], [ -1.3393538, 42.9909887 ], [ -1.3394293, 42.9910466 ], [ -1.339543, 42.9912116 ], [ -1.3395567, 42.9912475 ], [ -1.3396064, 42.9914313 ], [ -1.339711, 42.9917331 ], [ -1.339724, 42.9917708 ], [ -1.3397509, 42.9919896 ], [ -1.3397475, 42.9920287 ], [ -1.3396593, 42.9923732 ], [ -1.3395899, 42.9925735 ], [ -1.339567, 42.9926598 ], [ -1.3394839, 42.9928913 ], [ -1.3394106, 42.9932463 ], [ -1.3394062, 42.9933767 ], [ -1.3394047, 42.9934597 ], [ -1.3393988, 42.9935424 ], [ -1.3393592, 42.9936459 ], [ -1.3392009, 42.9938126 ], [ -1.3391133, 42.9938822 ], [ -1.3390883, 42.9939099 ], [ -1.3390183, 42.9939646 ], [ -1.3389651, 42.9939951 ], [ -1.3389464, 42.9940144 ], [ -1.3388791, 42.9941152 ], [ -1.33872, 42.9943771 ], [ -1.3386829, 42.9944262 ], [ -1.3386202, 42.9945821 ], [ -1.3386226, 42.9946371 ], [ -1.3386139, 42.9947525 ], [ -1.3385916, 42.9949974 ], [ -1.3385896, 42.9950291 ], [ -1.3385846, 42.9950617 ], [ -1.3385662, 42.9952725 ], [ -1.3385634, 42.9953302 ], [ -1.3385526, 42.9954435 ], [ -1.3385364, 42.9955783 ], [ -1.3385333, 42.9956044 ], [ -1.338511, 42.9957302 ], [ -1.3384907, 42.9958531 ], [ -1.3384862, 42.9959474 ], [ -1.3384787, 42.9959939 ], [ -1.3384779, 42.9960175 ], [ -1.33846, 42.9961159 ], [ -1.3384579, 42.9961406 ], [ -1.3384582, 42.9961656 ], [ -1.3384539, 42.9962163 ], [ -1.3384539, 42.9962642 ], [ -1.3384521, 42.9962903 ], [ -1.338442, 42.9964236 ], [ -1.3384553, 42.9965428 ], [ -1.3384756, 42.9966821 ], [ -1.3385013, 42.9968302 ], [ -1.3385168, 42.9969547 ], [ -1.3385078, 42.9971845 ], [ -1.3384808, 42.9972964 ], [ -1.3384544, 42.997405 ], [ -1.3384234, 42.9975768 ], [ -1.3384138, 42.9976057 ], [ -1.3383489, 42.9978738 ], [ -1.3383449, 42.9979053 ], [ -1.3383188, 42.9981273 ], [ -1.3383226, 42.9981593 ], [ -1.3383494, 42.9983219 ], [ -1.3383863, 42.9984872 ], [ -1.3383928, 42.9985185 ], [ -1.3384475, 42.9987889 ], [ -1.3384664, 42.9989164 ], [ -1.3384966, 42.9990797 ], [ -1.3385422, 42.9993918 ], [ -1.3385454, 42.9994239 ], [ -1.3385856, 42.9996902 ], [ -1.3386598, 42.9999665 ], [ -1.3388219, 43.0002493 ], [ -1.3388834, 43.000438 ], [ -1.3389071, 43.0005745 ], [ -1.3389223, 43.0006147 ], [ -1.3389255, 43.0006443 ], [ -1.3389307, 43.0006477 ], [ -1.338928, 43.0006537 ], [ -1.3389377, 43.0006589 ], [ -1.3389488, 43.0006448 ], [ -1.3389488, 43.0006448 ], [ -1.3389488, 43.0006448 ], [ -1.3389508, 43.0006451 ], [ -1.3389472, 43.0007204 ], [ -1.3389489, 43.0009296 ], [ -1.3389522, 43.0009826 ], [ -1.3389649, 43.0010393 ], [ -1.3390242, 43.0012261 ], [ -1.3390571, 43.0013556 ], [ -1.3390778, 43.0015653 ], [ -1.3390332, 43.0019548 ], [ -1.3389965, 43.0020665 ], [ -1.3389716, 43.0021156 ], [ -1.3389082, 43.0022144 ], [ -1.33889, 43.0022589 ], [ -1.3388693, 43.0022985 ], [ -1.3388468, 43.0023717 ], [ -1.3388023, 43.0025032 ], [ -1.3387898, 43.0025365 ], [ -1.3387743, 43.002569 ], [ -1.3387584, 43.0026024 ], [ -1.3387457, 43.0026352 ], [ -1.3386721, 43.0029233 ], [ -1.3386706, 43.0031307 ], [ -1.3386662, 43.0032388 ], [ -1.3386565, 43.0033375 ], [ -1.3386405, 43.0035143 ], [ -1.3386401, 43.0035448 ], [ -1.33864, 43.0036415 ], [ -1.3386393, 43.0037558 ], [ -1.338628, 43.0038376 ], [ -1.338597, 43.00395 ], [ -1.3385209, 43.0041949 ], [ -1.3384893, 43.0042796 ], [ -1.3384755, 43.0043259 ], [ -1.3384686, 43.0043748 ], [ -1.338471, 43.0044673 ], [ -1.3384811, 43.0045106 ], [ -1.3385479, 43.0047116 ], [ -1.3385787, 43.0048115 ], [ -1.338629, 43.0049861 ], [ -1.3386737, 43.0050875 ], [ -1.3387441, 43.0051498 ], [ -1.3390146, 43.0054226 ], [ -1.3391488, 43.0056016 ], [ -1.3392131, 43.0057002 ], [ -1.3392782, 43.0058163 ], [ -1.3393401, 43.0059704 ], [ -1.339352, 43.0060044 ], [ -1.3393853, 43.0060684 ], [ -1.3394252, 43.0061368 ], [ -1.3394842, 43.0061994 ], [ -1.3396487, 43.0063403 ], [ -1.3397153, 43.0063922 ], [ -1.3399414, 43.0065789 ], [ -1.3401032, 43.0067046 ], [ -1.3401558, 43.0067568 ], [ -1.3402475, 43.0068968 ], [ -1.3402682, 43.0069607 ], [ -1.3403776, 43.0071979 ], [ -1.3405334, 43.0073439 ], [ -1.3406038, 43.0073871 ], [ -1.3406884, 43.0074464 ], [ -1.3407166, 43.0074654 ], [ -1.3409273, 43.0076128 ], [ -1.3410085, 43.0076788 ], [ -1.3410813, 43.0077451 ], [ -1.3412184, 43.0079262 ], [ -1.3412678, 43.0080081 ], [ -1.3413229, 43.008091 ], [ -1.3413446, 43.0081188 ], [ -1.3414736, 43.0083223 ], [ -1.3415802, 43.0085535 ], [ -1.3416264, 43.0086595 ], [ -1.3417462, 43.0088815 ], [ -1.3419233, 43.0091068 ], [ -1.3421742, 43.0092513 ], [ -1.3423799, 43.0094212 ], [ -1.3425136, 43.0096163 ], [ -1.3426774, 43.0098131 ], [ -1.3428355, 43.0099825 ], [ -1.3429563, 43.0100937 ], [ -1.3430676, 43.0101976 ], [ -1.3431944, 43.010287 ], [ -1.3432204, 43.0103088 ], [ -1.3433024, 43.0103806 ], [ -1.3434038, 43.0104803 ], [ -1.3434328, 43.0105057 ], [ -1.3435452, 43.0106088 ], [ -1.3435793, 43.0106338 ], [ -1.3436707, 43.0107135 ], [ -1.3438201, 43.0108632 ], [ -1.3439556, 43.0110098 ], [ -1.3440479, 43.0111092 ], [ -1.3442263, 43.0112945 ], [ -1.3442584, 43.0113239 ], [ -1.344457, 43.0115604 ], [ -1.3445765, 43.011694 ], [ -1.3446972, 43.0117782 ], [ -1.3449801, 43.0119095 ], [ -1.3451401, 43.0119843 ], [ -1.3453703, 43.0120551 ], [ -1.3456092, 43.01211 ], [ -1.3457758, 43.0121471 ], [ -1.3458104, 43.0121571 ], [ -1.3460686, 43.0122716 ], [ -1.3460985, 43.0122858 ], [ -1.3462872, 43.0123876 ], [ -1.3463144, 43.0124063 ], [ -1.3465384, 43.0125906 ], [ -1.3467209, 43.0126909 ], [ -1.3469587, 43.0127304 ], [ -1.3469961, 43.0127354 ], [ -1.3470647, 43.0127628 ], [ -1.3471547, 43.0128113 ], [ -1.3473023, 43.01286 ], [ -1.3474147, 43.0129361 ], [ -1.3474434, 43.0129597 ], [ -1.3475869, 43.0130821 ], [ -1.3477053, 43.0131586 ], [ -1.3477363, 43.0131794 ], [ -1.3479376, 43.0133132 ], [ -1.3480096, 43.0133514 ], [ -1.3482835, 43.013471 ], [ -1.3484777, 43.013514 ], [ -1.3486869, 43.0135874 ], [ -1.3488491, 43.0136411 ], [ -1.3489948, 43.013701 ], [ -1.3490545, 43.0137206 ], [ -1.349214, 43.0137811 ], [ -1.3493406, 43.0138028 ], [ -1.3494524, 43.0138147 ], [ -1.3495863, 43.0138304 ], [ -1.3496836, 43.0138498 ], [ -1.3497419, 43.0138625 ], [ -1.3499006, 43.0139096 ], [ -1.3501538, 43.014011 ], [ -1.350227, 43.0140368 ], [ -1.3503971, 43.0140722 ], [ -1.3504343, 43.0140743 ], [ -1.3506164, 43.0140725 ], [ -1.3507567, 43.0140597 ], [ -1.3508631, 43.0140448 ], [ -1.3510858, 43.0140494 ], [ -1.3512904, 43.0141009 ], [ -1.3513578, 43.0141126 ], [ -1.3514241, 43.0141261 ], [ -1.3514919, 43.0141417 ], [ -1.351526, 43.0141458 ], [ -1.3515869, 43.0141533 ], [ -1.3517703, 43.0141759 ], [ -1.3520628, 43.0142431 ], [ -1.3522807, 43.0143384 ], [ -1.3525809, 43.0144804 ], [ -1.3527501, 43.0146003 ], [ -1.3529046, 43.0147135 ], [ -1.3529921, 43.0147504 ], [ -1.35301, 43.0147594 ], [ -1.3530646, 43.0147806 ], [ -1.3531377, 43.0148103 ], [ -1.35317, 43.0148267 ], [ -1.3532228, 43.0148555 ], [ -1.3533252, 43.0149135 ], [ -1.3533972, 43.0149431 ], [ -1.3534757, 43.0149855 ], [ -1.3535339, 43.0150145 ], [ -1.3535818, 43.0150492 ], [ -1.3536173, 43.0150718 ], [ -1.3536918, 43.0151013 ], [ -1.3537125, 43.0151088 ], [ -1.3537266, 43.0151182 ], [ -1.3538139, 43.0151633 ], [ -1.3538308, 43.0151747 ], [ -1.3539255, 43.015216 ], [ -1.3539959, 43.0152452 ], [ -1.3540312, 43.0152554 ], [ -1.3540836, 43.0152761 ], [ -1.3541173, 43.0152942 ], [ -1.3541721, 43.0153177 ], [ -1.3542794, 43.0153589 ], [ -1.3543678, 43.0153834 ], [ -1.3543849, 43.0153924 ], [ -1.3544652, 43.0154321 ], [ -1.3544968, 43.0154448 ], [ -1.3545482, 43.0154574 ], [ -1.3546259, 43.0154716 ], [ -1.3546566, 43.0154828 ], [ -1.3547233, 43.0155113 ], [ -1.3547547, 43.0155173 ], [ -1.3548298, 43.0155426 ], [ -1.3548472, 43.015548 ], [ -1.3548819, 43.015557 ], [ -1.3549033, 43.0155664 ], [ -1.354971, 43.0155939 ], [ -1.3549888, 43.0156009 ], [ -1.3550515, 43.0156488 ], [ -1.3550722, 43.0156921 ], [ -1.3550764, 43.0157079 ], [ -1.3550898, 43.0157651 ], [ -1.3551041, 43.0157936 ], [ -1.3551244, 43.0158266 ], [ -1.355131, 43.0158858 ], [ -1.3551396, 43.0159028 ], [ -1.3551916, 43.0159574 ], [ -1.3552372, 43.0160039 ], [ -1.3552991, 43.0160704 ], [ -1.3553226, 43.0160902 ], [ -1.3553677, 43.0161178 ], [ -1.3554186, 43.0161332 ], [ -1.3554335, 43.0161466 ], [ -1.3554521, 43.0162001 ], [ -1.3554684, 43.0162122 ], [ -1.355504, 43.0162518 ], [ -1.3555466, 43.016284 ], [ -1.3555608, 43.0162934 ], [ -1.3556109, 43.0163354 ], [ -1.3556465, 43.0163703 ], [ -1.3556577, 43.0163826 ], [ -1.3557032, 43.0164266 ], [ -1.3557189, 43.0164473 ], [ -1.3557495, 43.0164856 ], [ -1.3557938, 43.0165435 ], [ -1.3557984, 43.0165556 ], [ -1.3558167, 43.0166098 ], [ -1.3558215, 43.0166215 ], [ -1.3558438, 43.0166666 ], [ -1.3558647, 43.0167151 ], [ -1.3558729, 43.0167281 ], [ -1.3558852, 43.0167699 ], [ -1.3559019, 43.0168065 ], [ -1.3559118, 43.0168189 ], [ -1.3559473, 43.0168744 ], [ -1.3559583, 43.0169052 ], [ -1.3559935, 43.0169518 ], [ -1.3560277, 43.0169986 ], [ -1.3560432, 43.0170254 ], [ -1.3561001, 43.0170889 ], [ -1.3561499, 43.0171502 ], [ -1.3561573, 43.0171623 ], [ -1.3561815, 43.0171988 ], [ -1.3562155, 43.0172536 ], [ -1.3562312, 43.0172793 ], [ -1.3562557, 43.0173117 ], [ -1.3562736, 43.0173524 ], [ -1.3563078, 43.0174622 ], [ -1.3563111, 43.017477 ], [ -1.3563347, 43.0175571 ], [ -1.3563588, 43.0176589 ], [ -1.356359, 43.017777 ], [ -1.3563651, 43.0179034 ], [ -1.3563756, 43.0180257 ], [ -1.3563833, 43.0181344 ], [ -1.356384, 43.0181728 ], [ -1.3563959, 43.0182292 ], [ -1.3564075, 43.0182683 ], [ -1.3564203, 43.018324 ], [ -1.3564617, 43.0184235 ], [ -1.3564927, 43.0184805 ], [ -1.3565301, 43.0185396 ], [ -1.3565812, 43.0186115 ], [ -1.3566915, 43.0187234 ], [ -1.3567978, 43.0188441 ], [ -1.356813, 43.0188586 ], [ -1.3569114, 43.0189502 ], [ -1.3569317, 43.0189669 ], [ -1.3570501, 43.0190508 ], [ -1.3570958, 43.0190656 ], [ -1.3572138, 43.0190974 ], [ -1.3572833, 43.0191176 ], [ -1.3573214, 43.0191274 ], [ -1.3574045, 43.0191308 ], [ -1.3574678, 43.0191268 ], [ -1.3575391, 43.0191171 ], [ -1.3576565, 43.0191009 ], [ -1.3577672, 43.0190733 ], [ -1.3578114, 43.01906 ], [ -1.3578786, 43.0190417 ], [ -1.3579413, 43.0190191 ], [ -1.3579778, 43.019004 ], [ -1.358052, 43.0189758 ], [ -1.3581105, 43.0189431 ], [ -1.3581642, 43.0189169 ], [ -1.3581967, 43.0188953 ], [ -1.3582624, 43.0188661 ], [ -1.3582785, 43.0188582 ], [ -1.3583209, 43.0188244 ], [ -1.3583849, 43.0187819 ], [ -1.3584011, 43.0187728 ], [ -1.3584573, 43.0187322 ], [ -1.3584962, 43.0187098 ], [ -1.3585276, 43.01869 ], [ -1.3585929, 43.0186454 ], [ -1.3586223, 43.0186203 ], [ -1.3586768, 43.018561 ], [ -1.3586877, 43.0185534 ], [ -1.3587456, 43.0185013 ], [ -1.3587578, 43.0184919 ], [ -1.3588094, 43.0184484 ], [ -1.3588431, 43.0184134 ], [ -1.3588545, 43.0184051 ], [ -1.3588632, 43.018397 ], [ -1.3589196, 43.0183332 ], [ -1.358934, 43.0183178 ], [ -1.3590088, 43.018233 ], [ -1.3590205, 43.0182184 ], [ -1.3590854, 43.0181263 ], [ -1.359107, 43.018092 ], [ -1.3591782, 43.0179849 ], [ -1.3592082, 43.0179555 ], [ -1.359324, 43.0178642 ], [ -1.3594273, 43.0177724 ], [ -1.3594709, 43.017734 ], [ -1.3595138, 43.0176988 ], [ -1.3595869, 43.0176501 ], [ -1.3596635, 43.017613 ], [ -1.3596779, 43.0176081 ], [ -1.3597356, 43.0176028 ], [ -1.3597986, 43.0176192 ], [ -1.3598139, 43.0176303 ], [ -1.3598775, 43.0176704 ], [ -1.3599234, 43.0176999 ], [ -1.359937, 43.0177093 ], [ -1.3600106, 43.017752 ], [ -1.3600251, 43.0177588 ], [ -1.3600848, 43.017779 ], [ -1.3600979, 43.0177818 ], [ -1.3601287, 43.0177963 ], [ -1.3601876, 43.0178288 ], [ -1.3602308, 43.0178486 ], [ -1.360244, 43.0178514 ], [ -1.3603152, 43.0178423 ], [ -1.360324, 43.0177756 ], [ -1.3603188, 43.0177599 ], [ -1.3603212, 43.0177079 ], [ -1.3603296, 43.0176591 ], [ -1.3603395, 43.0176294 ], [ -1.3603799, 43.0175657 ], [ -1.3603919, 43.0175522 ], [ -1.3604502, 43.0174769 ], [ -1.360495, 43.0173934 ], [ -1.360525, 43.0173681 ], [ -1.3605556, 43.0173468 ], [ -1.3606314, 43.0172876 ], [ -1.3606637, 43.0172709 ], [ -1.3607905, 43.0172166 ], [ -1.3608788, 43.0171931 ], [ -1.3609339, 43.0171859 ], [ -1.3610089, 43.0171725 ], [ -1.3610302, 43.017168 ], [ -1.3610652, 43.0171668 ], [ -1.361119, 43.0171559 ], [ -1.3611373, 43.0171527 ], [ -1.3612305, 43.0171479 ], [ -1.3612508, 43.0171496 ], [ -1.3613083, 43.0171461 ], [ -1.3613673, 43.0171401 ], [ -1.361413, 43.0171359 ], [ -1.3614953, 43.0171244 ], [ -1.3615149, 43.0171243 ], [ -1.3616328, 43.0170976 ], [ -1.3617421, 43.0171096 ], [ -1.3617844, 43.0171189 ], [ -1.3618372, 43.0171387 ], [ -1.3619084, 43.0171907 ], [ -1.3619825, 43.0172443 ], [ -1.3619958, 43.017258 ], [ -1.3620576, 43.0173178 ], [ -1.3620734, 43.0173264 ], [ -1.3620892, 43.0173364 ], [ -1.3621525, 43.0173813 ], [ -1.36223, 43.0174432 ], [ -1.3622543, 43.0174693 ], [ -1.3623297, 43.0175161 ], [ -1.3624183, 43.0175595 ], [ -1.3625065, 43.0175982 ], [ -1.3625231, 43.0176054 ], [ -1.3626074, 43.0176331 ], [ -1.3626633, 43.0176558 ], [ -1.3627027, 43.0176708 ], [ -1.3628487, 43.0177301 ], [ -1.3629128, 43.017752 ], [ -1.3630329, 43.0177923 ], [ -1.36319, 43.0178497 ], [ -1.3632121, 43.0178571 ], [ -1.3633356, 43.017907 ], [ -1.3634177, 43.017943 ], [ -1.363439, 43.0179527 ], [ -1.3635237, 43.0179915 ], [ -1.363539, 43.0180068 ], [ -1.3636063, 43.0180693 ], [ -1.3636379, 43.0181004 ], [ -1.3636722, 43.0181246 ], [ -1.3637144, 43.0181453 ], [ -1.36379, 43.0181921 ], [ -1.3638275, 43.0182184 ], [ -1.3638625, 43.0182421 ], [ -1.3639382, 43.0182915 ], [ -1.3640103, 43.018336 ], [ -1.3640724, 43.01836 ], [ -1.3641428, 43.0184043 ], [ -1.3641788, 43.018447 ], [ -1.3642422, 43.018526 ], [ -1.3643044, 43.0185763 ], [ -1.3643376, 43.018611 ], [ -1.3643799, 43.0186547 ], [ -1.3643986, 43.0186663 ], [ -1.3645297, 43.0187767 ], [ -1.3645422, 43.0187908 ], [ -1.3646392, 43.0188643 ], [ -1.3646595, 43.0188721 ], [ -1.3647312, 43.0189401 ], [ -1.3647956, 43.0189897 ], [ -1.3648547, 43.0190217 ], [ -1.3649585, 43.0190742 ], [ -1.3650154, 43.0191098 ], [ -1.3650529, 43.0191352 ], [ -1.3650691, 43.0191492 ], [ -1.3651122, 43.019194 ], [ -1.3651374, 43.0192444 ], [ -1.3651451, 43.0192588 ], [ -1.3652048, 43.0193316 ], [ -1.3652693, 43.0193535 ], [ -1.3652876, 43.019347 ], [ -1.3652876, 43.0193471 ], [ -1.3652876, 43.0193471 ], [ -1.3652876, 43.0193471 ], [ -1.3652876, 43.0193471 ], [ -1.3652876, 43.0193471 ], [ -1.3652876, 43.0193471 ], [ -1.3652876, 43.0193471 ], [ -1.3652876, 43.0193471 ], [ -1.3652866, 43.019346 ], [ -1.3652876, 43.0193471 ], [ -1.3652876, 43.0193471 ], [ -1.3652876, 43.0193471 ], [ -1.3652876, 43.0193471 ], [ -1.3652765, 43.0193406 ], [ -1.3652876, 43.0193471 ], [ -1.3652876, 43.0193471 ], [ -1.3652876, 43.0193471 ], [ -1.3652749, 43.0193383 ], [ -1.3652706, 43.0193397 ], [ -1.3652706, 43.0193397 ], [ -1.3652706, 43.0193397 ], [ -1.3652706, 43.0193397 ], [ -1.3652706, 43.0193397 ], [ -1.3652706, 43.0193397 ], [ -1.3652706, 43.0193397 ], [ -1.3652706, 43.0193397 ], [ -1.3652706, 43.0193397 ], [ -1.3652706, 43.0193397 ], [ -1.3652706, 43.0193397 ], [ -1.3652706, 43.0193397 ], [ -1.3652706, 43.0193397 ], [ -1.3652706, 43.0193397 ], [ -1.3652706, 43.0193397 ], [ -1.3652706, 43.0193397 ], [ -1.3652706, 43.0193397 ], [ -1.3652706, 43.0193397 ], [ -1.3652706, 43.0193397 ], [ -1.3652706, 43.0193397 ], [ -1.3652706, 43.0193397 ], [ -1.3652706, 43.0193397 ], [ -1.3652706, 43.0193397 ], [ -1.3652706, 43.0193397 ], [ -1.3652706, 43.0193397 ], [ -1.3652706, 43.0193397 ], [ -1.3652706, 43.0193397 ], [ -1.3652706, 43.0193397 ], [ -1.3652706, 43.0193397 ], [ -1.3652706, 43.0193397 ], [ -1.3652706, 43.0193397 ], [ -1.3652706, 43.0193397 ], [ -1.3652706, 43.0193397 ], [ -1.3652706, 43.0193397 ], [ -1.3652706, 43.0193397 ], [ -1.3652706, 43.0193397 ], [ -1.3652706, 43.0193397 ], [ -1.3652804, 43.0193347 ], [ -1.3653111, 43.0193214 ], [ -1.3654622, 43.0192824 ], [ -1.3656096, 43.0192261 ], [ -1.3656623, 43.0192122 ], [ -1.3657253, 43.019197 ], [ -1.3657907, 43.0191777 ], [ -1.365915, 43.0191353 ], [ -1.3659706, 43.0191143 ], [ -1.3662195, 43.0190113 ], [ -1.3664175, 43.018937 ], [ -1.3664739, 43.0189241 ], [ -1.3665397, 43.0189086 ], [ -1.3666444, 43.0188486 ], [ -1.3667657, 43.0187632 ], [ -1.3667839, 43.0187514 ], [ -1.3668022, 43.0187387 ], [ -1.3668393, 43.0187112 ], [ -1.3669117, 43.0186506 ], [ -1.3669278, 43.0186352 ], [ -1.3670873, 43.018504 ], [ -1.3671639, 43.0184479 ], [ -1.3672076, 43.0184143 ], [ -1.3672591, 43.0183753 ], [ -1.367339, 43.0183188 ], [ -1.3674619, 43.0182357 ], [ -1.3674782, 43.0182273 ], [ -1.3675241, 43.0182042 ], [ -1.367583, 43.0181744 ], [ -1.367613, 43.0181603 ], [ -1.367655, 43.018136 ], [ -1.3677057, 43.0181208 ], [ -1.3677231, 43.0181158 ], [ -1.367758, 43.0181097 ], [ -1.367817, 43.0181071 ], [ -1.3678662, 43.0181065 ], [ -1.3679303, 43.0181025 ], [ -1.3679624, 43.0180971 ], [ -1.3679968, 43.018089 ], [ -1.368057, 43.0180755 ], [ -1.3680807, 43.0180702 ], [ -1.3682373, 43.0180506 ], [ -1.3683145, 43.0180478 ], [ -1.3683995, 43.0180533 ], [ -1.3684938, 43.0180677 ], [ -1.3685952, 43.0180855 ], [ -1.3687126, 43.0181008 ], [ -1.36885, 43.0181031 ], [ -1.3689979, 43.0180927 ], [ -1.3691498, 43.0180709 ], [ -1.3693025, 43.0180421 ], [ -1.3694504, 43.0180113 ], [ -1.3695847, 43.0179806 ], [ -1.3698, 43.0179068 ], [ -1.3698812, 43.017873 ], [ -1.3699483, 43.0178403 ], [ -1.3700018, 43.0178097 ], [ -1.3700776, 43.0177647 ], [ -1.3701025, 43.0177524 ], [ -1.3701455, 43.0177272 ], [ -1.3701643, 43.0177104 ], [ -1.3702156, 43.0176635 ], [ -1.3702462, 43.0176356 ], [ -1.3702605, 43.0176245 ], [ -1.3703154, 43.0175473 ], [ -1.3703745, 43.0174959 ], [ -1.3704142, 43.0174543 ], [ -1.3704839, 43.0173908 ], [ -1.3704987, 43.0173767 ], [ -1.3705937, 43.0172859 ], [ -1.3706852, 43.0171901 ], [ -1.3707055, 43.017162 ], [ -1.3707757, 43.0170782 ], [ -1.3708694, 43.0169808 ], [ -1.3709277, 43.016927 ], [ -1.370968, 43.0168892 ], [ -1.3709821, 43.0168799 ], [ -1.3710264, 43.0168407 ], [ -1.3710439, 43.0168283 ], [ -1.3711561, 43.016755 ], [ -1.3712841, 43.0166894 ], [ -1.3713287, 43.0166767 ], [ -1.3713692, 43.0166649 ], [ -1.3714991, 43.0166447 ], [ -1.3716555, 43.0166297 ], [ -1.3716778, 43.016627 ], [ -1.3718277, 43.0166145 ], [ -1.3718535, 43.0166136 ], [ -1.3720979, 43.016607 ], [ -1.3721245, 43.0166084 ], [ -1.3722717, 43.0166141 ], [ -1.3722943, 43.0166163 ], [ -1.3724429, 43.0166282 ], [ -1.3725475, 43.0166405 ], [ -1.3727185, 43.0166459 ], [ -1.3729693, 43.0166652 ], [ -1.3731857, 43.0167296 ], [ -1.3735112, 43.0168586 ], [ -1.3735487, 43.0168744 ], [ -1.3736999, 43.0169341 ], [ -1.373823, 43.0169654 ], [ -1.374059, 43.0169455 ], [ -1.3742704, 43.0168358 ], [ -1.3744442, 43.0166984 ], [ -1.3746117, 43.0165571 ], [ -1.3747251, 43.0164773 ], [ -1.3748216, 43.0164068 ], [ -1.3749648, 43.0162645 ], [ -1.3750743, 43.0160835 ], [ -1.3751796, 43.0158599 ], [ -1.3752116, 43.0157803 ], [ -1.375301, 43.0155896 ], [ -1.3754763, 43.0153667 ], [ -1.3755745, 43.0151416 ], [ -1.3755766, 43.0151113 ], [ -1.3755514, 43.0149524 ], [ -1.375543, 43.0149251 ], [ -1.3755039, 43.0148245 ], [ -1.3754845, 43.0147588 ], [ -1.375473, 43.014736 ], [ -1.3754451, 43.0146603 ], [ -1.3754265, 43.0146259 ], [ -1.3754174, 43.0145921 ], [ -1.3754074, 43.0145581 ], [ -1.3753944, 43.0145301 ], [ -1.375388, 43.0145158 ], [ -1.3753728, 43.014465 ], [ -1.3753307, 43.014361 ], [ -1.3753174, 43.0143197 ], [ -1.3752866, 43.014203 ], [ -1.3752289, 43.0140286 ], [ -1.3751846, 43.0138772 ], [ -1.3750764, 43.0136905 ], [ -1.375046, 43.0136086 ], [ -1.375011, 43.013499 ], [ -1.3749795, 43.0134039 ], [ -1.3749768, 43.0133791 ], [ -1.3749609, 43.013317 ], [ -1.3749496, 43.0132729 ], [ -1.3749463, 43.0132235 ], [ -1.3749304, 43.0131613 ], [ -1.3749236, 43.0130996 ], [ -1.3749099, 43.0130331 ], [ -1.3749055, 43.0130117 ], [ -1.3748813, 43.012949 ], [ -1.3748718, 43.0129273 ], [ -1.3748516, 43.0128867 ], [ -1.3748137, 43.0127911 ], [ -1.374777, 43.0126788 ], [ -1.374675, 43.0124467 ], [ -1.3746352, 43.0123689 ], [ -1.3745844, 43.0122756 ], [ -1.3745376, 43.0122072 ], [ -1.3744604, 43.0120855 ], [ -1.374428, 43.0120418 ], [ -1.3743479, 43.0119357 ], [ -1.3742898, 43.0118747 ], [ -1.3742025, 43.0117813 ], [ -1.3741697, 43.0117394 ], [ -1.3740521, 43.0116146 ], [ -1.3739891, 43.011565 ], [ -1.3738677, 43.0114699 ], [ -1.3738251, 43.0114365 ], [ -1.3737405, 43.0113818 ], [ -1.3737192, 43.0113678 ], [ -1.373592, 43.0112853 ], [ -1.3734053, 43.011177 ], [ -1.3733012, 43.0110977 ], [ -1.3732219, 43.0110268 ], [ -1.3731616, 43.010982 ], [ -1.3731419, 43.0109678 ], [ -1.3730895, 43.0109228 ], [ -1.3729957, 43.0108271 ], [ -1.3728935, 43.010724 ], [ -1.3728551, 43.0106932 ], [ -1.3727495, 43.0105912 ], [ -1.3725878, 43.0104503 ], [ -1.3724609, 43.0103558 ], [ -1.372418, 43.0103489 ], [ -1.3723259, 43.0103594 ], [ -1.3722634, 43.0103175 ], [ -1.3722397, 43.0102871 ], [ -1.3722169, 43.0102504 ], [ -1.3721743, 43.0101405 ], [ -1.3720757, 43.0100599 ], [ -1.3720141, 43.010014 ], [ -1.3719476, 43.0099625 ], [ -1.3718731, 43.0099103 ], [ -1.3717828, 43.0098621 ], [ -1.3716855, 43.0098052 ], [ -1.371583, 43.0097357 ], [ -1.3714741, 43.00966 ], [ -1.3713568, 43.0095979 ], [ -1.3710924, 43.0094971 ], [ -1.3709617, 43.0094454 ], [ -1.3708417, 43.0094065 ], [ -1.3707358, 43.0093776 ], [ -1.3705605, 43.0093397 ], [ -1.3703903, 43.009306 ], [ -1.3700719, 43.0092056 ], [ -1.369959, 43.0091606 ], [ -1.3698943, 43.0091566 ], [ -1.3697851, 43.0091129 ], [ -1.3697536, 43.0090757 ], [ -1.3697508, 43.0090702 ], [ -1.3697511, 43.0090521 ], [ -1.3697511, 43.0090521 ], [ -1.3697528, 43.0090536 ], [ -1.3697471, 43.0090429 ], [ -1.3697518, 43.0090361 ], [ -1.3697573, 43.0090251 ], [ -1.3697731, 43.0090047 ], [ -1.3697731, 43.0090047 ], [ -1.3697731, 43.0090047 ], [ -1.3697731, 43.0090047 ], [ -1.3697731, 43.0090047 ], [ -1.3697731, 43.0090047 ], [ -1.3697731, 43.0090047 ], [ -1.3697731, 43.0090047 ], [ -1.3697731, 43.0090047 ], [ -1.3697688, 43.0090071 ], [ -1.3697731, 43.0090047 ], [ -1.3697731, 43.0090047 ], [ -1.3697714, 43.0090054 ], [ -1.3697731, 43.0090047 ], [ -1.3697731, 43.0090047 ], [ -1.3697731, 43.0090047 ], [ -1.3697671, 43.0090029 ], [ -1.3697731, 43.0090047 ], [ -1.3697731, 43.0090047 ], [ -1.3697731, 43.0090047 ], [ -1.3697731, 43.0090047 ], [ -1.3697731, 43.0090047 ], [ -1.3697664, 43.0090009 ], [ -1.3697731, 43.0090047 ], [ -1.3697731, 43.0090047 ], [ -1.3697731, 43.0090047 ], [ -1.3697731, 43.0090047 ], [ -1.3697731, 43.0090047 ], [ -1.3697731, 43.0090047 ], [ -1.3697731, 43.0090047 ], [ -1.3697731, 43.0090047 ], [ -1.3697731, 43.0090047 ], [ -1.3697731, 43.0090047 ], [ -1.3697731, 43.0090047 ], [ -1.3697731, 43.0090047 ], [ -1.3697731, 43.0090047 ], [ -1.3697731, 43.0090047 ], [ -1.3697736, 43.0090045 ], [ -1.3697736, 43.0090045 ], [ -1.3697736, 43.0090045 ], [ -1.3697736, 43.0090045 ], [ -1.3697527, 43.008967 ], [ -1.3697233, 43.0088587 ], [ -1.3697205, 43.0088294 ], [ -1.3697352, 43.0087891 ], [ -1.3697414, 43.0087725 ], [ -1.3697492, 43.0087439 ], [ -1.3697529, 43.0087274 ], [ -1.369745, 43.0086719 ], [ -1.3697647, 43.0085711 ], [ -1.3698009, 43.0085346 ], [ -1.3698144, 43.008526 ], [ -1.3698809, 43.0084803 ], [ -1.3699054, 43.0084603 ], [ -1.3699859, 43.008413 ], [ -1.3700037, 43.0083999 ], [ -1.3700431, 43.0083815 ], [ -1.3700968, 43.0083451 ], [ -1.3701762, 43.0082726 ], [ -1.3702839, 43.0082125 ], [ -1.3703381, 43.0081638 ], [ -1.3703413, 43.008142 ], [ -1.3703422, 43.0080808 ], [ -1.3703294, 43.0080472 ], [ -1.3703086, 43.0080161 ], [ -1.3702967, 43.0079997 ], [ -1.3702626, 43.0079544 ], [ -1.3702423, 43.007925 ], [ -1.3702324, 43.0078914 ], [ -1.3702284, 43.0078856 ], [ -1.3702263, 43.0078814 ], [ -1.3702263, 43.0078814 ], [ -1.3702367, 43.0078419 ], [ -1.3702314, 43.0078343 ], [ -1.3702211, 43.007829 ], [ -1.3702067, 43.0078161 ], [ -1.3701261, 43.0077774 ], [ -1.3700258, 43.0077656 ], [ -1.3699228, 43.007768 ], [ -1.3697765, 43.007738 ], [ -1.3697037, 43.007725 ], [ -1.3696606, 43.0076955 ], [ -1.3696578, 43.0076722 ], [ -1.3696664, 43.0076576 ], [ -1.369688, 43.0076423 ], [ -1.3697059, 43.0076293 ], [ -1.3697078, 43.0076083 ], [ -1.3697016, 43.0075781 ], [ -1.3696971, 43.007511 ], [ -1.3696827, 43.0074745 ], [ -1.3696744, 43.0074344 ], [ -1.3696846, 43.0073607 ], [ -1.3696849, 43.0073306 ], [ -1.3696667, 43.0072982 ], [ -1.3696889, 43.0072396 ], [ -1.3696921, 43.0071856 ], [ -1.3696574, 43.0071475 ], [ -1.3696578, 43.0071442 ], [ -1.369632, 43.0071263 ], [ -1.3695857, 43.0070664 ], [ -1.3695685, 43.0069946 ], [ -1.3695419, 43.0069546 ], [ -1.3695216, 43.0069061 ], [ -1.3695158, 43.0068543 ], [ -1.3695095, 43.0068009 ], [ -1.3695055, 43.0067542 ], [ -1.3695277, 43.0067238 ], [ -1.3695627, 43.0067015 ], [ -1.369633, 43.0066379 ], [ -1.3696556, 43.0066156 ], [ -1.3696738, 43.0065922 ], [ -1.3697328, 43.0065475 ], [ -1.3697567, 43.0064926 ], [ -1.369724, 43.006434 ], [ -1.3697204, 43.0064002 ], [ -1.3697196, 43.0063683 ], [ -1.3697313, 43.0063358 ], [ -1.3697574, 43.0063052 ], [ -1.3697983, 43.0062931 ], [ -1.369861, 43.0062478 ], [ -1.3699017, 43.0062241 ], [ -1.3699517, 43.0062176 ], [ -1.3700594, 43.0062096 ], [ -1.3701595, 43.0062284 ], [ -1.3701928, 43.0062381 ], [ -1.3702636, 43.0062567 ], [ -1.3703013, 43.0062723 ], [ -1.3703611, 43.0062689 ], [ -1.3703792, 43.0062465 ], [ -1.3704122, 43.0062273 ], [ -1.3704527, 43.0062222 ], [ -1.3704975, 43.006229 ], [ -1.3705404, 43.0062395 ], [ -1.3706202, 43.006286 ], [ -1.3706401, 43.0063028 ], [ -1.3706661, 43.006302 ], [ -1.3706909, 43.0062918 ], [ -1.3707096, 43.0062738 ], [ -1.3707441, 43.006269 ], [ -1.3707801, 43.0062776 ], [ -1.3708142, 43.0062991 ], [ -1.3708473, 43.0063135 ], [ -1.3709075, 43.006322 ], [ -1.3709403, 43.006329 ], [ -1.3710151, 43.0063608 ], [ -1.3710808, 43.0063972 ], [ -1.3711592, 43.006436 ], [ -1.3711872, 43.0064307 ], [ -1.3712305, 43.0063965 ], [ -1.3712442, 43.0063666 ], [ -1.371253, 43.0063306 ], [ -1.3712716, 43.0062959 ], [ -1.3712952, 43.0062618 ], [ -1.3713198, 43.0062287 ], [ -1.3713327, 43.0061914 ], [ -1.3713533, 43.0061562 ], [ -1.3713657, 43.0061185 ], [ -1.371368, 43.006078 ], [ -1.3713695, 43.0060387 ], [ -1.3713725, 43.0059997 ], [ -1.3713681, 43.0059591 ], [ -1.371354, 43.0059068 ], [ -1.3713305, 43.0058548 ], [ -1.3713106, 43.0058006 ], [ -1.3712893, 43.0057571 ], [ -1.3712467, 43.0056622 ], [ -1.3711854, 43.0055652 ], [ -1.3711467, 43.0055234 ], [ -1.3711023, 43.0054769 ], [ -1.3710494, 43.005442 ], [ -1.3709979, 43.0054103 ], [ -1.3709598, 43.0053836 ], [ -1.3709105, 43.0053769 ], [ -1.3708546, 43.0053702 ], [ -1.3707816, 43.0053509 ], [ -1.370772, 43.0053223 ], [ -1.370793, 43.0052822 ], [ -1.3708052, 43.0052591 ], [ -1.3708008, 43.0052464 ], [ -1.3708006, 43.0052464 ], [ -1.3707988, 43.0052448 ], [ -1.3707733, 43.0052398 ], [ -1.3707733, 43.00524 ], [ -1.3707733, 43.00524 ], [ -1.3707733, 43.00524 ], [ -1.370782, 43.0052257 ], [ -1.370805, 43.0051693 ], [ -1.3707977, 43.0051531 ], [ -1.3707961, 43.005145 ], [ -1.3707919, 43.0051346 ], [ -1.3707968, 43.0051251 ], [ -1.3708022, 43.0051216 ], [ -1.3708046, 43.0051195 ], [ -1.3708111, 43.0051239 ], [ -1.3708127, 43.0051285 ], [ -1.3708365, 43.0051483 ], [ -1.3708387, 43.005157 ], [ -1.3707989, 43.0051921 ], [ -1.3707954, 43.0051946 ], [ -1.3707954, 43.0051946 ], [ -1.3707954, 43.0051946 ], [ -1.3707954, 43.0051946 ], [ -1.3707877, 43.0051852 ], [ -1.3707727, 43.0051772 ], [ -1.3707726, 43.0051772 ], [ -1.3707726, 43.0051772 ], [ -1.3707726, 43.0051772 ], [ -1.3707726, 43.0051772 ], [ -1.3707663, 43.0051733 ], [ -1.3707288, 43.0050878 ], [ -1.370704, 43.0049905 ], [ -1.3706873, 43.0049289 ], [ -1.3706721, 43.0048669 ], [ -1.3706599, 43.0048066 ], [ -1.3706471, 43.0047126 ], [ -1.3706519, 43.0047005 ], [ -1.3706614, 43.0046726 ], [ -1.3706654, 43.0046458 ], [ -1.3706603, 43.0046175 ], [ -1.3706598, 43.0045893 ], [ -1.3706811, 43.004544 ], [ -1.3707091, 43.004536 ], [ -1.3707367, 43.0045355 ], [ -1.3708403, 43.004536 ], [ -1.3709489, 43.0045532 ], [ -1.3710103, 43.0045699 ], [ -1.3710607, 43.0046018 ], [ -1.3711464, 43.0046577 ], [ -1.3712124, 43.0046704 ], [ -1.371246, 43.0046395 ], [ -1.3712424, 43.0045937 ], [ -1.3712644, 43.0045515 ], [ -1.3712807, 43.0045416 ], [ -1.3712844, 43.0045251 ], [ -1.3712752, 43.0045019 ], [ -1.3712616, 43.0044703 ], [ -1.3712388, 43.0044298 ], [ -1.3711736, 43.0043507 ], [ -1.3711299, 43.004319 ], [ -1.3710598, 43.004216 ], [ -1.3710484, 43.0041854 ], [ -1.3710165, 43.0041567 ], [ -1.3709704, 43.0041344 ], [ -1.3709139, 43.0041206 ], [ -1.3708575, 43.0041003 ], [ -1.3708083, 43.0040658 ], [ -1.3707632, 43.0040316 ], [ -1.3707166, 43.0039901 ], [ -1.3706975, 43.0039399 ], [ -1.3707057, 43.0038835 ], [ -1.3707281, 43.003823 ], [ -1.3707343, 43.0037659 ], [ -1.3707241, 43.0036996 ], [ -1.3707061, 43.0036272 ], [ -1.3706777, 43.0035573 ], [ -1.3706204, 43.0034956 ], [ -1.370571, 43.0034282 ], [ -1.3705387, 43.003367 ], [ -1.3704677, 43.0032418 ], [ -1.3704233, 43.0031789 ], [ -1.3703538, 43.0031375 ], [ -1.3703126, 43.0030764 ], [ -1.3702814, 43.0030184 ], [ -1.3702475, 43.0029593 ], [ -1.3701952, 43.0029186 ], [ -1.3701208, 43.002888 ], [ -1.370045, 43.0028598 ], [ -1.3699755, 43.002816 ], [ -1.3699099, 43.0027625 ], [ -1.3698554, 43.00269 ], [ -1.3698316, 43.002609 ], [ -1.3698108, 43.0025206 ], [ -1.369787, 43.0024195 ], [ -1.3697533, 43.0023114 ], [ -1.3697063, 43.0022066 ], [ -1.3695948, 43.002042 ], [ -1.3695724, 43.001976 ], [ -1.369538, 43.0018537 ], [ -1.3695295, 43.0017927 ], [ -1.3694983, 43.0016077 ], [ -1.3694892, 43.0015454 ], [ -1.3694659, 43.0014802 ], [ -1.3694033, 43.0013537 ], [ -1.3693628, 43.0012325 ], [ -1.3693611, 43.0011705 ], [ -1.3693462, 43.0011127 ], [ -1.3692996, 43.0009971 ], [ -1.3692726, 43.0009448 ], [ -1.3692204, 43.000809 ], [ -1.3692177, 43.0007671 ], [ -1.3692177, 43.0007229 ], [ -1.3692189, 43.0006786 ], [ -1.3692369, 43.0006312 ], [ -1.3692803, 43.0005323 ], [ -1.3692851, 43.0004293 ], [ -1.3693275, 43.0003293 ], [ -1.3693617, 43.0002951 ], [ -1.3694581, 43.0002372 ], [ -1.3695039, 43.0002112 ], [ -1.3695388, 43.0001692 ], [ -1.3695487, 43.0001145 ], [ -1.3695479, 43.0000626 ], [ -1.3695416, 43.0000001 ], [ -1.3695205, 42.9998644 ], [ -1.3695197, 42.9997913 ], [ -1.3695385, 42.9997239 ], [ -1.3695589, 42.9995735 ], [ -1.3695816, 42.9995011 ], [ -1.3696272, 42.9994291 ], [ -1.3696878, 42.9992776 ], [ -1.3697271, 42.9991098 ], [ -1.3697904, 42.9989529 ], [ -1.3698217, 42.9988054 ], [ -1.3698326, 42.9986702 ], [ -1.3698336, 42.9985388 ], [ -1.369844, 42.998418 ], [ -1.3698461, 42.9983626 ], [ -1.3698685, 42.9983027 ], [ -1.3699025, 42.9982565 ], [ -1.3699279, 42.9982169 ], [ -1.3699705, 42.9981672 ], [ -1.3699833, 42.9981696 ], [ -1.3699833, 42.9981696 ], [ -1.3699833, 42.9981696 ], [ -1.3699833, 42.9981696 ], [ -1.3699833, 42.9981696 ], [ -1.3699833, 42.9981696 ], [ -1.3699833, 42.9981696 ], [ -1.3699833, 42.9981696 ], [ -1.3699749, 42.9981411 ], [ -1.3699802, 42.998136 ], [ -1.3699802, 42.998136 ], [ -1.3699802, 42.998136 ], [ -1.3699802, 42.998136 ], [ -1.3699802, 42.998136 ], [ -1.3699802, 42.998136 ], [ -1.3699802, 42.998136 ], [ -1.3699802, 42.998136 ], [ -1.3699802, 42.998136 ], [ -1.3699802, 42.998136 ], [ -1.3699802, 42.998136 ], [ -1.3699802, 42.998136 ], [ -1.3699656, 42.9981327 ], [ -1.3699538, 42.9980667 ], [ -1.3699421, 42.9980429 ], [ -1.3699322, 42.9980215 ], [ -1.3699227, 42.9979416 ], [ -1.3698712, 42.997889 ], [ -1.369873, 42.9978881 ], [ -1.3698699, 42.9978885 ], [ -1.3698354, 42.9978613 ], [ -1.3698181, 42.9977989 ], [ -1.369802, 42.9977761 ], [ -1.3697512, 42.9977069 ], [ -1.3697219, 42.997689 ], [ -1.3696204, 42.9975716 ], [ -1.3696165, 42.9975343 ], [ -1.3696057, 42.9974466 ], [ -1.3696185, 42.9972987 ], [ -1.3695967, 42.997233 ], [ -1.3695747, 42.9971782 ], [ -1.3695593, 42.9971209 ], [ -1.3695551, 42.9970722 ], [ -1.3695712, 42.9969971 ], [ -1.36957, 42.9969383 ], [ -1.3695746, 42.9969049 ], [ -1.3695396, 42.9967918 ], [ -1.3695231, 42.996755 ], [ -1.3694955, 42.9967191 ], [ -1.3694114, 42.9966007 ], [ -1.3693877, 42.9965607 ], [ -1.3693658, 42.9965226 ], [ -1.3693552, 42.9964764 ], [ -1.3693157, 42.99642 ], [ -1.3692804, 42.996401 ], [ -1.3692432, 42.9963969 ], [ -1.3691193, 42.9963699 ], [ -1.3690572, 42.9963122 ], [ -1.3690487, 42.9962777 ], [ -1.369068, 42.9962034 ], [ -1.369063, 42.9961299 ], [ -1.3691168, 42.9959839 ], [ -1.3692288, 42.9958788 ], [ -1.3692478, 42.9957952 ], [ -1.3692353, 42.9957574 ], [ -1.3692051, 42.9957165 ], [ -1.3691729, 42.995676 ], [ -1.3691521, 42.9955204 ], [ -1.3691063, 42.9953586 ], [ -1.3690396, 42.9952417 ], [ -1.3690165, 42.9952125 ], [ -1.3689308, 42.9951741 ], [ -1.3688942, 42.9951443 ], [ -1.3688906, 42.9951066 ], [ -1.3689587, 42.9950522 ], [ -1.368968, 42.9950238 ], [ -1.3689557, 42.9949898 ], [ -1.368939, 42.9949519 ], [ -1.3688751, 42.9948354 ], [ -1.368805, 42.994793 ], [ -1.3686826, 42.994715 ], [ -1.3685084, 42.9946548 ], [ -1.3684694, 42.9946553 ], [ -1.3684118, 42.9946823 ], [ -1.3683803, 42.9947086 ], [ -1.3683205, 42.9947383 ], [ -1.3682881, 42.9947287 ], [ -1.3682515, 42.9947137 ], [ -1.3681325, 42.9946386 ], [ -1.3681015, 42.9946183 ], [ -1.3680747, 42.994609 ], [ -1.3680308, 42.994594 ], [ -1.3680058, 42.9945881 ], [ -1.3680016, 42.9945779 ], [ -1.3680252, 42.9945436 ], [ -1.3680348, 42.994537 ], [ -1.3680413, 42.9945422 ], [ -1.3680432, 42.9945266 ], [ -1.3680464, 42.9944536 ], [ -1.3680374, 42.9943505 ], [ -1.3680579, 42.9943154 ], [ -1.3680638, 42.9942756 ], [ -1.3680449, 42.9942424 ], [ -1.3679954, 42.9941864 ], [ -1.3679151, 42.9941006 ], [ -1.3678683, 42.9940475 ], [ -1.3676681, 42.9938676 ], [ -1.3674848, 42.9937382 ], [ -1.3674296, 42.9937034 ], [ -1.3674021, 42.9936849 ], [ -1.3673424, 42.9936408 ], [ -1.3672483, 42.993577 ], [ -1.3671391, 42.9934606 ], [ -1.3670436, 42.9933414 ], [ -1.36691, 42.9931986 ], [ -1.3667044, 42.9930071 ], [ -1.3666613, 42.9929695 ], [ -1.3665247, 42.9928577 ], [ -1.3663692, 42.99271 ], [ -1.3662421, 42.9925836 ], [ -1.3661764, 42.9925194 ], [ -1.365893, 42.9922811 ], [ -1.3656401, 42.9921095 ], [ -1.3656052, 42.9920842 ], [ -1.3653698, 42.9919241 ], [ -1.3653249, 42.9918982 ], [ -1.365217, 42.991843 ], [ -1.3650909, 42.9917792 ], [ -1.3649623, 42.9917185 ], [ -1.3647803, 42.9916274 ], [ -1.3646515, 42.9915737 ], [ -1.3645831, 42.9915481 ], [ -1.3643086, 42.9914412 ], [ -1.3641062, 42.9913634 ], [ -1.3639209, 42.9912915 ], [ -1.3638125, 42.9912492 ], [ -1.3634661, 42.9910954 ], [ -1.363315, 42.9910075 ], [ -1.363295, 42.9909849 ], [ -1.3632384, 42.9909182 ], [ -1.3632065, 42.9908532 ], [ -1.3631931, 42.9908324 ], [ -1.3631518, 42.9907747 ], [ -1.3630919, 42.9907022 ], [ -1.3630117, 42.9905813 ], [ -1.3629104, 42.990447 ], [ -1.3627724, 42.9903275 ], [ -1.3627548, 42.9903003 ], [ -1.3626146, 42.9901552 ], [ -1.3625368, 42.9900855 ], [ -1.3624472, 42.9899872 ], [ -1.3622798, 42.9898794 ], [ -1.3622403, 42.9898493 ], [ -1.3621648, 42.9897757 ], [ -1.3620478, 42.9896418 ], [ -1.361952, 42.9895699 ], [ -1.3618987, 42.9895485 ], [ -1.3618406, 42.9895311 ], [ -1.361711, 42.9894706 ], [ -1.3616506, 42.9894303 ], [ -1.3615944, 42.9893846 ], [ -1.3614877, 42.9892867 ], [ -1.3614437, 42.989232 ], [ -1.3613778, 42.989112 ], [ -1.3613416, 42.9890599 ], [ -1.3612217, 42.9889698 ], [ -1.3610563, 42.9889301 ], [ -1.3610246, 42.9889249 ], [ -1.3609917, 42.9889191 ], [ -1.3609917, 42.9889191 ], [ -1.3609917, 42.9889191 ], [ -1.3609819, 42.9889182 ], [ -1.3609494, 42.9889103 ], [ -1.3608604, 42.9888871 ], [ -1.360828, 42.9888828 ], [ -1.3607628, 42.9888886 ], [ -1.360741, 42.9889141 ], [ -1.3607176, 42.9889757 ], [ -1.3606985, 42.9890627 ], [ -1.3606536, 42.9891183 ], [ -1.3606343, 42.9891243 ], [ -1.3606078, 42.9891253 ], [ -1.3605815, 42.9891255 ], [ -1.360545, 42.9891251 ], [ -1.3605101, 42.9891234 ], [ -1.3604735, 42.9891239 ], [ -1.3603818, 42.9891273 ], [ -1.3603248, 42.9891249 ], [ -1.3602936, 42.9891236 ], [ -1.3601852, 42.9891584 ], [ -1.3601535, 42.9891746 ], [ -1.3600682, 42.9892529 ], [ -1.3600472, 42.989275 ], [ -1.3600224, 42.9892958 ], [ -1.3597595, 42.9894626 ], [ -1.3595655, 42.9895462 ], [ -1.3594588, 42.9895708 ], [ -1.3593028, 42.9895991 ], [ -1.3591685, 42.9895947 ], [ -1.3588588, 42.9895969 ], [ -1.3588021, 42.989598 ], [ -1.3587392, 42.9895962 ], [ -1.3586138, 42.9895962 ], [ -1.3584398, 42.9895915 ], [ -1.3580214, 42.9895676 ], [ -1.3579603, 42.9895637 ], [ -1.3576001, 42.9895336 ], [ -1.3575443, 42.9895191 ], [ -1.3572413, 42.9894553 ], [ -1.3568814, 42.9893723 ], [ -1.3567546, 42.9893486 ], [ -1.3566216, 42.9893116 ], [ -1.3565563, 42.9892921 ], [ -1.3564892, 42.9892813 ], [ -1.3564229, 42.989286 ], [ -1.3563546, 42.9892924 ], [ -1.3562127, 42.9893181 ], [ -1.3561314, 42.9893281 ], [ -1.3560464, 42.9893306 ], [ -1.355965, 42.989327 ], [ -1.3558891, 42.9893141 ], [ -1.35576, 42.989288 ], [ -1.355705, 42.9892927 ], [ -1.3556137, 42.9893236 ], [ -1.3555805, 42.9893563 ], [ -1.3555504, 42.9893857 ], [ -1.3555052, 42.9894442 ], [ -1.3554863, 42.9894701 ], [ -1.3554057, 42.9895336 ], [ -1.3553313, 42.9895856 ], [ -1.3552498, 42.9896308 ], [ -1.3551643, 42.9896372 ], [ -1.3550925, 42.9896341 ], [ -1.3550733, 42.9896196 ], [ -1.3550438, 42.9896149 ], [ -1.3549213, 42.989617 ], [ -1.3546624, 42.9896389 ], [ -1.354583, 42.9896436 ], [ -1.3544706, 42.9896589 ], [ -1.3543553, 42.98967 ], [ -1.3543199, 42.9896741 ], [ -1.3541571, 42.9896857 ], [ -1.3541155, 42.9896888 ], [ -1.3540308, 42.9896997 ], [ -1.3537652, 42.9897314 ], [ -1.3536713, 42.9897416 ], [ -1.3532884, 42.9897854 ], [ -1.3532436, 42.9897904 ], [ -1.3532018, 42.9897965 ], [ -1.3529641, 42.9898286 ], [ -1.3528445, 42.9898411 ], [ -1.3527092, 42.9898561 ], [ -1.3526578, 42.9898611 ], [ -1.352558, 42.9898713 ], [ -1.352208, 42.9899109 ], [ -1.35175, 42.989971 ], [ -1.3513889, 42.9899852 ], [ -1.3511746, 42.9899511 ], [ -1.3509634, 42.9899001 ], [ -1.3509043, 42.9898925 ], [ -1.3507217, 42.9898592 ], [ -1.3505976, 42.9898313 ], [ -1.3501505, 42.9897325 ], [ -1.3500933, 42.9897221 ], [ -1.3497987, 42.9896604 ], [ -1.3496509, 42.9896276 ], [ -1.3493056, 42.9895578 ], [ -1.3489154, 42.9894849 ], [ -1.348503, 42.9893907 ], [ -1.3483389, 42.9893624 ], [ -1.3481342, 42.9893471 ], [ -1.3477827, 42.9893339 ], [ -1.3476517, 42.9893295 ], [ -1.3474451, 42.9893248 ], [ -1.3470075, 42.9893135 ], [ -1.3468567, 42.9893113 ], [ -1.346425, 42.9893028 ], [ -1.3460725, 42.9892968 ], [ -1.3458964, 42.989293 ], [ -1.3458402, 42.9892879 ], [ -1.3456695, 42.9892809 ], [ -1.3456123, 42.9892843 ], [ -1.3455105, 42.9893172 ], [ -1.3454168, 42.9893785 ], [ -1.3450957, 42.9896169 ], [ -1.3450413, 42.9896423 ], [ -1.3449224, 42.9896793 ], [ -1.3447993, 42.98969 ], [ -1.3444425, 42.989677 ], [ -1.3441849, 42.9896491 ], [ -1.3440916, 42.9896408 ], [ -1.3438508, 42.9896311 ], [ -1.3437565, 42.9896255 ], [ -1.3435255, 42.9896149 ], [ -1.3434311, 42.9896131 ], [ -1.343385, 42.9896102 ], [ -1.3430688, 42.9896337 ], [ -1.3428676, 42.9896693 ], [ -1.3426129, 42.9896976 ], [ -1.3425567, 42.9896913 ], [ -1.3424402, 42.9896549 ], [ -1.342383, 42.9896242 ], [ -1.3422542, 42.9895491 ], [ -1.342087, 42.989477 ], [ -1.3418756, 42.9894425 ], [ -1.3417693, 42.9894447 ], [ -1.3416589, 42.9894568 ], [ -1.3413457, 42.9895184 ], [ -1.3410238, 42.989668 ], [ -1.340905, 42.9897356 ], [ -1.3407934, 42.9897921 ], [ -1.3406751, 42.9898461 ], [ -1.3405513, 42.9898935 ], [ -1.3401752, 42.9900205 ], [ -1.3401207, 42.9900546 ], [ -1.3400732, 42.9900965 ], [ -1.3399967, 42.990194 ], [ -1.3398958, 42.9903861 ], [ -1.3397424, 42.9906058 ], [ -1.3394336, 42.9908299 ], [ -1.3392742, 42.9909085 ], [ -1.3391545, 42.9909139 ], [ -1.3390216, 42.9909127 ], [ -1.3389502, 42.9909096 ], [ -1.3388787, 42.9909072 ], [ -1.338667, 42.9909014 ], [ -1.3385977, 42.990898 ], [ -1.3383973, 42.990897 ], [ -1.3382636, 42.9908922 ], [ -1.338199, 42.9908862 ], [ -1.3380703, 42.9908701 ], [ -1.3376367, 42.9907752 ], [ -1.3371829, 42.9906386 ], [ -1.3370679, 42.9905995 ], [ -1.3369181, 42.9905178 ], [ -1.3368849, 42.9904852 ], [ -1.336852, 42.9904525 ], [ -1.3367665, 42.9903676 ], [ -1.3367036, 42.9903164 ], [ -1.3366789, 42.9902836 ], [ -1.3366028, 42.990192 ], [ -1.3365077, 42.9900833 ], [ -1.336459, 42.9900273 ], [ -1.336433, 42.9900037 ], [ -1.3363854, 42.989948 ], [ -1.3363478, 42.9898892 ], [ -1.3363216, 42.9898332 ], [ -1.3362754, 42.9897228 ], [ -1.3362652, 42.9896964 ], [ -1.3362375, 42.9896073 ], [ -1.3361747, 42.9895133 ], [ -1.3360697, 42.9894374 ], [ -1.3360116, 42.9894051 ], [ -1.3359872, 42.9893924 ], [ -1.3359234, 42.9893714 ], [ -1.3359134, 42.9893712 ], [ -1.3358986, 42.9893736 ], [ -1.3358895, 42.9893716 ], [ -1.3358878, 42.9893717 ], [ -1.3358436, 42.9893569 ], [ -1.3357061, 42.9893096 ], [ -1.33553, 42.989271 ], [ -1.3353059, 42.9891894 ], [ -1.3352618, 42.9891705 ], [ -1.3351629, 42.9891223 ], [ -1.3351068, 42.9890978 ], [ -1.3349938, 42.9890431 ], [ -1.3348806, 42.9890067 ], [ -1.3347134, 42.9889586 ], [ -1.3345837, 42.9889258 ], [ -1.3344432, 42.9888895 ], [ -1.3343067, 42.9888413 ], [ -1.3341707, 42.9887863 ], [ -1.3338153, 42.988642 ], [ -1.3333447, 42.9884597 ], [ -1.3332228, 42.9884101 ], [ -1.3331071, 42.9883569 ], [ -1.3328649, 42.9882483 ], [ -1.3327948, 42.9882224 ], [ -1.3324811, 42.9881102 ], [ -1.3323994, 42.988083 ], [ -1.3322359, 42.9880346 ], [ -1.3320852, 42.9879973 ], [ -1.3319441, 42.9879634 ], [ -1.3316009, 42.9878853 ], [ -1.3315131, 42.9878578 ], [ -1.3314768, 42.987846 ], [ -1.3313563, 42.9877839 ], [ -1.3313361, 42.9877705 ], [ -1.3312708, 42.987666 ], [ -1.3312265, 42.9874921 ], [ -1.331249, 42.9873873 ], [ -1.3312747, 42.9872989 ], [ -1.3312945, 42.9872046 ], [ -1.3313136, 42.9870965 ], [ -1.3313986, 42.9867984 ], [ -1.3314302, 42.9867643 ], [ -1.3315603, 42.9865853 ], [ -1.3317048, 42.9863325 ], [ -1.3317827, 42.9861925 ], [ -1.3318297, 42.9860996 ], [ -1.3319563, 42.9857274 ], [ -1.3319636, 42.985682 ], [ -1.3319837, 42.9855931 ], [ -1.3320057, 42.9854542 ], [ -1.3320194, 42.9853607 ], [ -1.3320189, 42.9851828 ], [ -1.3320074, 42.9850939 ], [ -1.332003, 42.9850478 ], [ -1.332042, 42.9847798 ], [ -1.3321224, 42.9845376 ], [ -1.3321248, 42.9844851 ], [ -1.3321116, 42.9842417 ], [ -1.3321111, 42.9841491 ], [ -1.3321132, 42.9836274 ], [ -1.3321085, 42.9833926 ], [ -1.3321105, 42.9833452 ], [ -1.3321054, 42.9831548 ], [ -1.3321097, 42.9828274 ], [ -1.3321077, 42.9827298 ], [ -1.3321085, 42.9826805 ], [ -1.3321049, 42.9822397 ], [ -1.3321034, 42.9821933 ], [ -1.3320868, 42.9819095 ], [ -1.332071, 42.9818143 ], [ -1.3319486, 42.9813811 ], [ -1.3318806, 42.9812401 ], [ -1.3317294, 42.9809569 ], [ -1.3315313, 42.9805906 ], [ -1.3315071, 42.9805482 ], [ -1.3312878, 42.980234 ], [ -1.3312472, 42.9802008 ], [ -1.331112, 42.9801057 ], [ -1.3310606, 42.9800814 ], [ -1.33096, 42.9800187 ], [ -1.3305912, 42.9798439 ], [ -1.330473, 42.9798142 ], [ -1.3302346, 42.9797889 ], [ -1.3298384, 42.9798147 ], [ -1.3295045, 42.979855 ], [ -1.3292874, 42.9798886 ], [ -1.3290791, 42.9799249 ], [ -1.3289709, 42.9799412 ], [ -1.3285451, 42.9800051 ], [ -1.3280571, 42.9800673 ], [ -1.3277583, 42.9800877 ], [ -1.3277131, 42.9800901 ], [ -1.32729, 42.9800887 ], [ -1.3268995, 42.9800777 ], [ -1.3268482, 42.9800742 ], [ -1.3265807, 42.9800504 ], [ -1.3265313, 42.9800462 ], [ -1.3262507, 42.9800443 ], [ -1.3262015, 42.9800492 ], [ -1.3261541, 42.9800549 ], [ -1.3257904, 42.9800833 ], [ -1.3255999, 42.9800896 ], [ -1.325454, 42.9800899 ], [ -1.3254464, 42.9800939 ], [ -1.3254343, 42.9800736 ], [ -1.3254343, 42.9800736 ], [ -1.3254314, 42.9800675 ], [ -1.3254252, 42.9800369 ], [ -1.3254208, 42.980028 ], [ -1.3254114, 42.9800128 ], [ -1.3254138, 42.9800142 ], [ -1.3254138, 42.9800142 ], [ -1.3254138, 42.9800142 ], [ -1.3254138, 42.9800142 ], [ -1.3254138, 42.9800142 ], [ -1.3254138, 42.9800142 ], [ -1.3254138, 42.9800142 ], [ -1.3254138, 42.9800142 ], [ -1.3254138, 42.9800142 ], [ -1.3254138, 42.9800142 ], [ -1.3254069, 42.980012 ], [ -1.3253927, 42.9799928 ], [ -1.3253868, 42.9799781 ], [ -1.3253591, 42.979919 ], [ -1.3253521, 42.9798802 ], [ -1.3253771, 42.9797988 ], [ -1.3253894, 42.9797867 ], [ -1.3254495, 42.9797323 ], [ -1.325463, 42.9797161 ], [ -1.3255086, 42.9796676 ], [ -1.3255174, 42.97961 ], [ -1.3255122, 42.9795623 ], [ -1.3255121, 42.9795522 ], [ -1.3255098, 42.9795386 ], [ -1.3254927, 42.9794958 ], [ -1.3254842, 42.9794677 ], [ -1.3254733, 42.979443 ], [ -1.3254582, 42.9793824 ], [ -1.3254226, 42.9793254 ], [ -1.3254036, 42.9792801 ], [ -1.3253764, 42.9792186 ], [ -1.3253715, 42.9792066 ], [ -1.3253637, 42.9791974 ], [ -1.3253564, 42.9791821 ], [ -1.3253519, 42.9791697 ], [ -1.3253432, 42.9791493 ], [ -1.325336, 42.9791398 ], [ -1.3253296, 42.9791286 ], [ -1.3253166, 42.9791087 ], [ -1.3253081, 42.9790851 ], [ -1.3252969, 42.9790642 ], [ -1.3252852, 42.9790433 ], [ -1.3252709, 42.9790072 ], [ -1.3252677, 42.9789942 ], [ -1.3252673, 42.9789839 ], [ -1.3252432, 42.9789369 ], [ -1.3252373, 42.9789238 ], [ -1.3252237, 42.9788895 ], [ -1.3252066, 42.9788408 ], [ -1.3251845, 42.9787821 ], [ -1.3251787, 42.9787702 ], [ -1.3251599, 42.9787274 ], [ -1.3251406, 42.9786756 ], [ -1.3251392, 42.9786672 ], [ -1.3251245, 42.9786135 ], [ -1.3251212, 42.9785894 ], [ -1.3251159, 42.9785568 ], [ -1.3251085, 42.9785303 ], [ -1.3250987, 42.978464 ], [ -1.3250908, 42.9784363 ], [ -1.3250971, 42.9783918 ], [ -1.3250978, 42.9783577 ], [ -1.3251017, 42.9783318 ], [ -1.3251209, 42.978299 ], [ -1.3251326, 42.9782762 ], [ -1.3251526, 42.9782216 ], [ -1.325172, 42.9782027 ], [ -1.3251891, 42.9781601 ], [ -1.3252416, 42.9781066 ], [ -1.3252797, 42.9780755 ], [ -1.3253057, 42.9780593 ], [ -1.3253589, 42.978008 ], [ -1.3254376, 42.977958 ], [ -1.3254547, 42.9779527 ], [ -1.3255337, 42.9779261 ], [ -1.3255524, 42.9779256 ], [ -1.3256557, 42.9778911 ], [ -1.3256739, 42.9778871 ], [ -1.3257672, 42.9778602 ], [ -1.3258242, 42.9778437 ], [ -1.3259226, 42.9778236 ], [ -1.325964, 42.9778177 ], [ -1.3260859, 42.9778169 ], [ -1.326102, 42.977813 ], [ -1.3261491, 42.9778017 ], [ -1.3262468, 42.9777723 ], [ -1.3263658, 42.9777226 ], [ -1.3264063, 42.9777074 ], [ -1.326523, 42.9776136 ], [ -1.326613, 42.9775228 ], [ -1.3266218, 42.9775081 ], [ -1.326698, 42.9773672 ], [ -1.326711, 42.9772974 ], [ -1.3267377, 42.9771826 ], [ -1.3267424, 42.9771609 ], [ -1.3267466, 42.9771374 ], [ -1.326802, 42.9769864 ], [ -1.3268165, 42.9769641 ], [ -1.3268681, 42.976898 ], [ -1.326937, 42.9768222 ], [ -1.3269526, 42.9768024 ], [ -1.3269998, 42.9767388 ], [ -1.3270139, 42.9767166 ], [ -1.3270641, 42.9766554 ], [ -1.3270846, 42.9766368 ], [ -1.3271429, 42.9765859 ], [ -1.3271976, 42.9765311 ], [ -1.3272126, 42.9765148 ], [ -1.3272328, 42.976471 ], [ -1.3272711, 42.976413 ], [ -1.3272843, 42.9763958 ], [ -1.327304, 42.9763547 ], [ -1.3273257, 42.976314 ], [ -1.3273625, 42.9762501 ], [ -1.3273882, 42.9762005 ], [ -1.3274341, 42.9761252 ], [ -1.3274421, 42.9761081 ], [ -1.3275118, 42.9760249 ], [ -1.3275366, 42.9759962 ], [ -1.32757, 42.9759736 ], [ -1.3276464, 42.9759157 ], [ -1.3277282, 42.9758522 ], [ -1.3277281, 42.9758523 ], [ -1.3277281, 42.9758523 ], [ -1.3277281, 42.9758523 ], [ -1.3277281, 42.9758523 ], [ -1.3277281, 42.9758523 ], [ -1.3277281, 42.9758523 ], [ -1.3277281, 42.9758523 ], [ -1.3277281, 42.9758523 ], [ -1.3277281, 42.9758523 ], [ -1.3277281, 42.9758523 ], [ -1.3277281, 42.9758523 ], [ -1.3277281, 42.9758523 ], [ -1.3277281, 42.9758523 ], [ -1.3277281, 42.9758523 ], [ -1.3277281, 42.9758523 ], [ -1.3277281, 42.9758523 ], [ -1.3277281, 42.9758523 ], [ -1.3277281, 42.9758523 ], [ -1.3277281, 42.9758523 ], [ -1.3277281, 42.9758523 ], [ -1.3277281, 42.9758523 ], [ -1.3277281, 42.9758523 ], [ -1.3277281, 42.9758523 ], [ -1.3277281, 42.9758523 ], [ -1.3277281, 42.9758523 ], [ -1.3277281, 42.9758523 ], [ -1.3277281, 42.9758523 ], [ -1.3277281, 42.9758523 ], [ -1.3277281, 42.9758523 ], [ -1.3277281, 42.9758523 ], [ -1.3277281, 42.9758523 ], [ -1.3277281, 42.9758523 ], [ -1.3277281, 42.9758523 ], [ -1.3277281, 42.9758523 ], [ -1.3277281, 42.9758523 ], [ -1.3277281, 42.9758523 ], [ -1.3277281, 42.9758523 ], [ -1.3277281, 42.9758523 ], [ -1.3277281, 42.9758523 ], [ -1.3277281, 42.9758523 ], [ -1.3277281, 42.9758523 ], [ -1.3277281, 42.9758523 ], [ -1.3277281, 42.9758523 ], [ -1.3277281, 42.9758523 ], [ -1.3277281, 42.9758523 ], [ -1.3277281, 42.9758523 ], [ -1.3277281, 42.9758523 ], [ -1.3277281, 42.9758523 ], [ -1.3277281, 42.9758523 ], [ -1.3277281, 42.9758523 ], [ -1.3277281, 42.9758523 ], [ -1.3277281, 42.9758523 ], [ -1.3277281, 42.9758523 ], [ -1.3277346, 42.9758498 ], [ -1.32773, 42.9758553 ], [ -1.3277256, 42.9758534 ], [ -1.3277281, 42.9758523 ], [ -1.3277281, 42.9758523 ], [ -1.3277281, 42.9758523 ], [ -1.3277281, 42.9758523 ], [ -1.3277281, 42.9758523 ], [ -1.3277281, 42.9758523 ], [ -1.3277281, 42.9758523 ], [ -1.3277281, 42.9758523 ], [ -1.3277281, 42.9758523 ], [ -1.3277281, 42.9758523 ], [ -1.3277281, 42.9758523 ], [ -1.3277272, 42.9758529 ], [ -1.3277281, 42.9758523 ], [ -1.3277281, 42.9758523 ], [ -1.3277281, 42.9758523 ], [ -1.3277281, 42.9758523 ], [ -1.3277281, 42.9758523 ], [ -1.3277281, 42.9758523 ], [ -1.3277281, 42.9758523 ], [ -1.3277281, 42.9758523 ], [ -1.3277281, 42.9758523 ], [ -1.3277281, 42.9758523 ], [ -1.3277281, 42.9758523 ], [ -1.3277281, 42.9758523 ], [ -1.3277281, 42.9758523 ], [ -1.3277281, 42.9758523 ], [ -1.3277281, 42.9758523 ], [ -1.3277281, 42.9758523 ], [ -1.3277281, 42.9758523 ], [ -1.3277281, 42.9758523 ], [ -1.3277281, 42.9758523 ], [ -1.3277281, 42.9758523 ], [ -1.3277281, 42.9758523 ], [ -1.3277281, 42.9758523 ], [ -1.3277281, 42.9758523 ], [ -1.3277281, 42.9758523 ], [ -1.3277281, 42.9758523 ], [ -1.3277322, 42.9758506 ], [ -1.3277281, 42.9758523 ], [ -1.3277281, 42.9758523 ], [ -1.3277281, 42.9758523 ], [ -1.3277281, 42.9758523 ], [ -1.3277281, 42.9758523 ], [ -1.3277281, 42.9758523 ], [ -1.3277281, 42.9758523 ], [ -1.3277281, 42.9758523 ], [ -1.3277281, 42.9758523 ], [ -1.3277281, 42.9758523 ], [ -1.3277281, 42.9758523 ], [ -1.3277281, 42.9758523 ], [ -1.3277281, 42.9758523 ], [ -1.3277281, 42.9758523 ], [ -1.3277281, 42.9758523 ], [ -1.3277281, 42.9758523 ], [ -1.3277281, 42.9758523 ], [ -1.3277281, 42.9758523 ], [ -1.3277361, 42.9758469 ], [ -1.3277494, 42.9758342 ], [ -1.327747, 42.9758214 ], [ -1.3277189, 42.9758038 ], [ -1.3276989, 42.9758109 ], [ -1.3276277, 42.9758594 ], [ -1.3275401, 42.9759644 ], [ -1.3275034, 42.9760272 ], [ -1.3274827, 42.9760778 ], [ -1.3274597, 42.9761509 ], [ -1.3274386, 42.9761892 ], [ -1.3274197, 42.9762291 ], [ -1.3274014, 42.9762676 ], [ -1.3273817, 42.9763061 ], [ -1.3272947, 42.9764553 ], [ -1.3272307, 42.9765222 ], [ -1.3271902, 42.976553 ], [ -1.3271501, 42.976585 ], [ -1.3271119, 42.9766248 ], [ -1.3270807, 42.9766694 ], [ -1.3270498, 42.9767187 ], [ -1.3270155, 42.9767677 ], [ -1.3269325, 42.9768615 ], [ -1.326845, 42.9769562 ], [ -1.3268053, 42.9770059 ], [ -1.3267739, 42.9770636 ], [ -1.3267555, 42.9771273 ], [ -1.3267429, 42.9771937 ], [ -1.3267317, 42.9772593 ], [ -1.3267199, 42.9773253 ], [ -1.3267012, 42.9773883 ], [ -1.3266321, 42.9774983 ], [ -1.3265914, 42.9775519 ], [ -1.326545, 42.9776006 ], [ -1.3263952, 42.9777196 ], [ -1.3263374, 42.9777504 ], [ -1.3262157, 42.9777975 ], [ -1.326152, 42.9778101 ], [ -1.3259226, 42.977838 ], [ -1.3258515, 42.977853 ], [ -1.3257881, 42.9778734 ], [ -1.3256638, 42.9779112 ], [ -1.3256012, 42.9779287 ], [ -1.3255324, 42.9779307 ], [ -1.3254593, 42.9779176 ], [ -1.3253878, 42.9778943 ], [ -1.3252282, 42.977842 ], [ -1.325047, 42.9778 ], [ -1.3248603, 42.9777636 ], [ -1.3246605, 42.9777153 ], [ -1.3244717, 42.977669 ], [ -1.3243179, 42.9776375 ], [ -1.3242203, 42.9776033 ], [ -1.3241835, 42.9775861 ], [ -1.3241677, 42.9775732 ], [ -1.3241677, 42.9775732 ], [ -1.3241677, 42.9775732 ], [ -1.3241677, 42.9775732 ], [ -1.3241472, 42.9775581 ], [ -1.32414, 42.9775463 ], [ -1.3241237, 42.9775136 ], [ -1.3241168, 42.9774902 ], [ -1.3241124, 42.9774903 ], [ -1.3241124, 42.9774903 ], [ -1.3241124, 42.9774903 ], [ -1.3241124, 42.9774903 ], [ -1.3241124, 42.9774903 ], [ -1.3241124, 42.9774903 ], [ -1.3241124, 42.9774903 ], [ -1.324112, 42.9774908 ], [ -1.3241027, 42.9774898 ], [ -1.3240883, 42.9774811 ], [ -1.3239982, 42.9774567 ], [ -1.3239636, 42.9774474 ], [ -1.3236846, 42.9773738 ], [ -1.3234769, 42.9773219 ], [ -1.3234304, 42.9773123 ], [ -1.3232858, 42.9772715 ], [ -1.3232343, 42.9772569 ], [ -1.3231821, 42.9772438 ], [ -1.3229119, 42.9771902 ], [ -1.322856, 42.9771922 ], [ -1.3224994, 42.9771861 ], [ -1.3224372, 42.9771819 ], [ -1.3223036, 42.9771668 ], [ -1.3222388, 42.9771485 ], [ -1.3221722, 42.9771282 ], [ -1.3221102, 42.9771085 ], [ -1.3219305, 42.9770614 ], [ -1.321865, 42.9770381 ], [ -1.3217892, 42.9770136 ], [ -1.3217093, 42.9769888 ], [ -1.3215262, 42.9769292 ], [ -1.3214274, 42.9768945 ], [ -1.3213344, 42.9768549 ], [ -1.3212366, 42.9768122 ], [ -1.3211362, 42.9767732 ], [ -1.3209364, 42.9766952 ], [ -1.3207482, 42.9766026 ], [ -1.3205709, 42.9764972 ], [ -1.3204163, 42.9763857 ], [ -1.3203499, 42.9763263 ], [ -1.3202316, 42.9762092 ], [ -1.3201535, 42.9760929 ], [ -1.319989, 42.975859 ], [ -1.31994, 42.9757737 ], [ -1.3199253, 42.9756851 ], [ -1.3199669, 42.9755333 ], [ -1.3199663, 42.9754753 ], [ -1.319968, 42.9753183 ], [ -1.319995, 42.9751977 ], [ -1.3200446, 42.9750594 ], [ -1.3200943, 42.9750007 ], [ -1.3201198, 42.9749687 ], [ -1.3201894, 42.9749084 ], [ -1.3202044, 42.9748992 ], [ -1.3202809, 42.9748537 ], [ -1.3202839, 42.9748201 ], [ -1.3202771, 42.9748092 ], [ -1.3202767, 42.9748085 ], [ -1.3202709, 42.9747938 ], [ -1.3202651, 42.9747678 ], [ -1.3202563, 42.9747094 ], [ -1.3202279, 42.9746377 ], [ -1.3201926, 42.9745701 ], [ -1.3201768, 42.9745438 ], [ -1.3201429, 42.9744843 ], [ -1.3200236, 42.974321 ], [ -1.3200036, 42.9742948 ], [ -1.3199665, 42.9742094 ], [ -1.3199509, 42.9741147 ], [ -1.3199472, 42.9740788 ], [ -1.3199513, 42.9739769 ], [ -1.3199713, 42.9738891 ], [ -1.3199543, 42.9737411 ], [ -1.3199488, 42.9737141 ], [ -1.3199233, 42.9736288 ], [ -1.319924, 42.9736226 ], [ -1.3199011, 42.9735896 ], [ -1.3198952, 42.97357 ], [ -1.3198865, 42.9735612 ], [ -1.3198785, 42.973558 ], [ -1.3198785, 42.973558 ], [ -1.3198784, 42.9735578 ], [ -1.3198785, 42.973558 ], [ -1.3198695, 42.9735403 ], [ -1.319857, 42.9735101 ], [ -1.3198385, 42.973411 ], [ -1.3198373, 42.9733824 ], [ -1.3198241, 42.9733274 ], [ -1.3198073, 42.9732645 ], [ -1.3197993, 42.973219 ], [ -1.3197708, 42.9730837 ], [ -1.3197566, 42.9729194 ], [ -1.3197557, 42.9728923 ], [ -1.319753, 42.9728663 ], [ -1.3197395, 42.9727713 ], [ -1.3197372, 42.9727441 ], [ -1.3197302, 42.9726629 ], [ -1.3197274, 42.9725581 ], [ -1.3197215, 42.9725093 ], [ -1.3197245, 42.9724437 ], [ -1.3197227, 42.9723282 ], [ -1.3197261, 42.9721461 ], [ -1.3197317, 42.9720424 ], [ -1.3197456, 42.9719925 ], [ -1.3197851, 42.9718168 ], [ -1.3197862, 42.9716331 ], [ -1.3197271, 42.9715297 ], [ -1.3196526, 42.9714525 ], [ -1.3196167, 42.9714443 ], [ -1.319534, 42.9714514 ], [ -1.3193176, 42.9714015 ], [ -1.3192458, 42.9713254 ], [ -1.3191811, 42.9712934 ], [ -1.3190921, 42.9712622 ], [ -1.3188815, 42.9712101 ], [ -1.3188517, 42.9712041 ], [ -1.318729, 42.9711827 ], [ -1.3186311, 42.9711758 ], [ -1.3185916, 42.9711691 ], [ -1.3184925, 42.9711535 ], [ -1.3184541, 42.9711451 ], [ -1.3183512, 42.9711161 ], [ -1.3183307, 42.9711126 ], [ -1.3182685, 42.9710931 ], [ -1.3182197, 42.9710863 ], [ -1.3181996, 42.971082 ], [ -1.3181301, 42.9710511 ], [ -1.3181109, 42.9710406 ], [ -1.3180346, 42.9709824 ], [ -1.3179957, 42.9709472 ], [ -1.3179793, 42.970932 ], [ -1.3179612, 42.9709215 ], [ -1.3179031, 42.9708823 ], [ -1.3178539, 42.97085 ], [ -1.3177591, 42.9707809 ], [ -1.3177479, 42.9707669 ], [ -1.3177132, 42.9707277 ], [ -1.3176693, 42.9706884 ], [ -1.3176575, 42.9706765 ], [ -1.3176107, 42.9706242 ], [ -1.3175767, 42.9705931 ], [ -1.3175507, 42.9705647 ], [ -1.3174988, 42.9705039 ], [ -1.3174907, 42.9704902 ], [ -1.3174456, 42.9704445 ], [ -1.3174176, 42.9704231 ], [ -1.3173993, 42.9703995 ], [ -1.3173867, 42.9703745 ], [ -1.3173646, 42.9703527 ], [ -1.3173233, 42.9703243 ], [ -1.3173055, 42.9703004 ], [ -1.3172833, 42.9702755 ], [ -1.3172344, 42.9702183 ], [ -1.3171862, 42.9701716 ], [ -1.3171755, 42.9701619 ], [ -1.3171148, 42.9700978 ], [ -1.3170642, 42.9700362 ], [ -1.3170401, 42.9700055 ], [ -1.3169928, 42.9699307 ], [ -1.316966, 42.9699031 ], [ -1.316956, 42.9698906 ], [ -1.316912, 42.9698643 ], [ -1.3168741, 42.969843 ], [ -1.3168638, 42.9698352 ], [ -1.3168123, 42.9698109 ], [ -1.3167791, 42.9698105 ], [ -1.3167409, 42.9698102 ], [ -1.3166753, 42.9698145 ], [ -1.3166162, 42.969821 ], [ -1.3165493, 42.9698262 ], [ -1.3164819, 42.9698215 ], [ -1.3164218, 42.969812 ], [ -1.3163833, 42.9698042 ], [ -1.3163595, 42.9698007 ], [ -1.3162985, 42.969791 ], [ -1.3162804, 42.9697886 ], [ -1.316242, 42.9697794 ], [ -1.3161841, 42.9697734 ], [ -1.3161428, 42.9697632 ], [ -1.3161189, 42.9697583 ], [ -1.3160754, 42.9697481 ], [ -1.3160539, 42.9697424 ], [ -1.3159899, 42.9697287 ], [ -1.3159493, 42.9697117 ], [ -1.3159326, 42.9697057 ], [ -1.315872, 42.9696875 ], [ -1.3158266, 42.969678 ], [ -1.3158088, 42.9696738 ], [ -1.3157414, 42.9696593 ], [ -1.3156741, 42.9696422 ], [ -1.3156265, 42.9696304 ], [ -1.3155765, 42.9696221 ], [ -1.3155303, 42.96961 ], [ -1.3154818, 42.9695961 ], [ -1.315435, 42.9695814 ], [ -1.3153847, 42.9695794 ], [ -1.315312, 42.9695706 ], [ -1.3152649, 42.969567 ], [ -1.3151913, 42.9695667 ], [ -1.3151656, 42.9695632 ], [ -1.3151147, 42.9695594 ], [ -1.3150147, 42.9695519 ], [ -1.3149674, 42.969545 ], [ -1.3149434, 42.9695434 ], [ -1.3148749, 42.9695403 ], [ -1.3148522, 42.969538 ], [ -1.3148069, 42.9695352 ], [ -1.3147903, 42.9695256 ], [ -1.3147528, 42.9695018 ], [ -1.3146856, 42.9694418 ], [ -1.3146868, 42.9694226 ], [ -1.3146977, 42.9694096 ], [ -1.3147024, 42.9694021 ], [ -1.314718, 42.9693816 ], [ -1.3147123, 42.9693854 ], [ -1.3147123, 42.9693854 ], [ -1.3147111, 42.9693861 ], [ -1.3147123, 42.9693854 ], [ -1.3147123, 42.9693854 ], [ -1.3147123, 42.9693854 ], [ -1.3147123, 42.9693854 ], [ -1.3147123, 42.9693854 ], [ -1.3147123, 42.9693854 ], [ -1.3147123, 42.9693854 ], [ -1.3147123, 42.9693854 ], [ -1.3147123, 42.9693854 ], [ -1.3147123, 42.9693854 ], [ -1.3147123, 42.9693854 ], [ -1.3147123, 42.9693854 ], [ -1.3147123, 42.9693854 ], [ -1.3147123, 42.9693854 ], [ -1.3147123, 42.9693854 ], [ -1.3147123, 42.9693854 ], [ -1.3147143, 42.9693826 ], [ -1.3148038, 42.9693824 ], [ -1.3148324, 42.9693982 ], [ -1.314854, 42.9694274 ], [ -1.3148505, 42.9694805 ], [ -1.3148433, 42.9695076 ], [ -1.3148401, 42.9695088 ], [ -1.3148401, 42.9695088 ], [ -1.3148401, 42.9695088 ], [ -1.3148401, 42.9695088 ], [ -1.3148401, 42.9695088 ], [ -1.3148401, 42.9695088 ], [ -1.3148401, 42.9695088 ], [ -1.3148401, 42.9695088 ], [ -1.3148401, 42.9695088 ], [ -1.3148401, 42.9695088 ], [ -1.3148401, 42.9695088 ], [ -1.3148401, 42.9695088 ], [ -1.3148401, 42.9695088 ], [ -1.3148401, 42.9695088 ], [ -1.3148401, 42.9695088 ], [ -1.3148401, 42.9695088 ], [ -1.3148401, 42.9695088 ], [ -1.3148401, 42.9695088 ], [ -1.3148401, 42.9695088 ], [ -1.3148401, 42.9695088 ], [ -1.3148401, 42.9695088 ], [ -1.3148401, 42.9695088 ], [ -1.3148328, 42.9695115 ], [ -1.314822, 42.9695204 ], [ -1.3148075, 42.9695222 ], [ -1.3147821, 42.9695094 ], [ -1.3147816, 42.9694926 ], [ -1.3147922, 42.9694806 ], [ -1.3148146, 42.9694344 ], [ -1.3147923, 42.9693956 ], [ -1.3147264, 42.9693167 ], [ -1.3146991, 42.9692949 ], [ -1.3146397, 42.969242 ], [ -1.3146253, 42.9692272 ], [ -1.3146028, 42.9692031 ], [ -1.3145589, 42.9691485 ], [ -1.3145463, 42.9691226 ], [ -1.3145237, 42.9690662 ], [ -1.3145177, 42.9690514 ], [ -1.3144725, 42.9689671 ], [ -1.3144654, 42.9689549 ], [ -1.3144296, 42.9689122 ], [ -1.3144216, 42.9689004 ], [ -1.314396, 42.968876 ], [ -1.3143341, 42.9688261 ], [ -1.3142797, 42.9687714 ], [ -1.3142547, 42.9687454 ], [ -1.3141975, 42.9686921 ], [ -1.3141688, 42.9686642 ], [ -1.3141045, 42.9685998 ], [ -1.3140703, 42.9685625 ], [ -1.3140467, 42.9685349 ], [ -1.3139774, 42.9684791 ], [ -1.3139664, 42.9684667 ], [ -1.3139533, 42.9684533 ], [ -1.3139113, 42.9684193 ], [ -1.3138381, 42.9683677 ], [ -1.3137737, 42.9683167 ], [ -1.3137492, 42.9682905 ], [ -1.3137176, 42.9682696 ], [ -1.3136456, 42.9682161 ], [ -1.313578, 42.9681621 ], [ -1.3135531, 42.9681387 ], [ -1.3135104, 42.9680921 ], [ -1.3134759, 42.9680518 ], [ -1.3134444, 42.968015 ], [ -1.3133876, 42.967941 ], [ -1.3133328, 42.9678874 ], [ -1.3133237, 42.9678743 ], [ -1.313284, 42.9678211 ], [ -1.3132508, 42.9677781 ], [ -1.3131844, 42.9677031 ], [ -1.3131698, 42.9676909 ], [ -1.3130702, 42.9676115 ], [ -1.3130531, 42.9676013 ], [ -1.3129518, 42.9675378 ], [ -1.312921, 42.9675161 ], [ -1.3129026, 42.9675077 ], [ -1.312817, 42.9674536 ], [ -1.3127805, 42.9674327 ], [ -1.312693, 42.9673815 ], [ -1.3126238, 42.9673433 ], [ -1.3125723, 42.9673111 ], [ -1.3124807, 42.9672661 ], [ -1.3124617, 42.9672568 ], [ -1.3124068, 42.9672272 ], [ -1.3123168, 42.9671696 ], [ -1.3122815, 42.9671462 ], [ -1.312208, 42.9670986 ], [ -1.312132, 42.9670552 ], [ -1.3120592, 42.9670105 ], [ -1.311979, 42.9669659 ], [ -1.3119591, 42.9669553 ], [ -1.3118042, 42.9668815 ], [ -1.3117793, 42.9668735 ], [ -1.3115862, 42.9668059 ], [ -1.3113993, 42.9667297 ], [ -1.3113334, 42.9667056 ], [ -1.3110775, 42.9666056 ], [ -1.3108215, 42.9664892 ], [ -1.3106909, 42.9664261 ], [ -1.3105714, 42.9663644 ], [ -1.3104382, 42.9663181 ], [ -1.3103354, 42.9663013 ], [ -1.3100698, 42.9662734 ], [ -1.3100025, 42.9662632 ], [ -1.3098954, 42.9662403 ], [ -1.3097616, 42.9662013 ], [ -1.3096624, 42.9661709 ], [ -1.3095658, 42.9661392 ], [ -1.3095065, 42.9661118 ], [ -1.3093248, 42.9660268 ], [ -1.3092448, 42.965971 ], [ -1.3091594, 42.9658867 ], [ -1.3091063, 42.9658248 ], [ -1.3089763, 42.9656625 ], [ -1.3089539, 42.9656387 ], [ -1.3087979, 42.965514 ], [ -1.3087371, 42.9654787 ], [ -1.3085013, 42.9653951 ], [ -1.3084663, 42.9653945 ], [ -1.3081393, 42.9654133 ], [ -1.3078653, 42.9654202 ], [ -1.3077956, 42.9654228 ], [ -1.3076402, 42.96542 ], [ -1.3075632, 42.9654212 ], [ -1.3074088, 42.9654184 ], [ -1.3072606, 42.9654458 ], [ -1.3070023, 42.9655452 ], [ -1.3066831, 42.9656729 ], [ -1.3064102, 42.9657921 ], [ -1.3063642, 42.9658097 ], [ -1.3061298, 42.9659029 ], [ -1.305899, 42.9659952 ], [ -1.3054901, 42.9661165 ], [ -1.305042, 42.9661361 ], [ -1.3047113, 42.9661332 ], [ -1.3044756, 42.9661246 ], [ -1.3043598, 42.9661265 ], [ -1.3041277, 42.9661312 ], [ -1.3040733, 42.9661354 ], [ -1.3039547, 42.9661756 ], [ -1.3039494, 42.9662039 ], [ -1.3039651, 42.9662304 ], [ -1.3040267, 42.9662777 ], [ -1.3043194, 42.9664703 ], [ -1.3046833, 42.9667054 ], [ -1.3049978, 42.9669433 ], [ -1.3050816, 42.9670219 ], [ -1.3052073, 42.9671429 ], [ -1.305331, 42.967268 ], [ -1.3054634, 42.9674015 ], [ -1.3057223, 42.9676597 ], [ -1.3058071, 42.9677496 ], [ -1.3060215, 42.9679619 ], [ -1.3061056, 42.9680405 ], [ -1.3061609, 42.9681184 ], [ -1.3061885, 42.9681963 ], [ -1.3062106, 42.9683235 ], [ -1.3062267, 42.9683682 ], [ -1.3062631, 42.9684641 ], [ -1.3062745, 42.968517 ], [ -1.3063252, 42.9687417 ], [ -1.3063417, 42.9688032 ], [ -1.3064215, 42.9690774 ], [ -1.3064614, 42.9692219 ], [ -1.3065046, 42.9693669 ], [ -1.3066312, 42.9697907 ], [ -1.3066501, 42.9698605 ], [ -1.3066901, 42.9700029 ], [ -1.3067365, 42.970223 ], [ -1.3067395, 42.970365 ], [ -1.306718, 42.9707483 ], [ -1.306707, 42.9708172 ], [ -1.3066153, 42.9712649 ], [ -1.3066043, 42.971324 ], [ -1.3065373, 42.9715542 ], [ -1.3064804, 42.9717613 ], [ -1.3063836, 42.9721001 ], [ -1.3063402, 42.972259 ], [ -1.306325, 42.972372 ], [ -1.306316, 42.9724057 ], [ -1.3062943, 42.9724694 ], [ -1.3062678, 42.9725632 ], [ -1.3062536, 42.9726281 ], [ -1.306239, 42.9726584 ], [ -1.3062078, 42.9727469 ], [ -1.3061994, 42.9727764 ], [ -1.3061718, 42.9728625 ], [ -1.306165, 42.9728922 ], [ -1.3061492, 42.9729494 ], [ -1.3061364, 42.9729748 ], [ -1.3061204, 42.9730281 ], [ -1.3060682, 42.9731255 ], [ -1.306052, 42.9731494 ], [ -1.3059601, 42.9732336 ], [ -1.3058901, 42.9733023 ], [ -1.3057912, 42.9733908 ], [ -1.3056177, 42.9735555 ], [ -1.3054883, 42.9736698 ], [ -1.3054124, 42.9737372 ], [ -1.3052213, 42.9739344 ], [ -1.305058, 42.9741711 ], [ -1.3049758, 42.9742942 ], [ -1.3048703, 42.9744124 ], [ -1.3047936, 42.9745391 ], [ -1.3048158, 42.9745878 ], [ -1.3048808, 42.9746709 ], [ -1.3049016, 42.974718 ], [ -1.3048946, 42.9747944 ], [ -1.3048835, 42.9748917 ], [ -1.3048543, 42.9749852 ], [ -1.30483, 42.9750542 ], [ -1.3048218, 42.9750756 ], [ -1.3047762, 42.9751941 ], [ -1.3047266, 42.9752941 ], [ -1.304711, 42.9753354 ], [ -1.3046977, 42.9753981 ], [ -1.3046682, 42.9754936 ], [ -1.3046469, 42.9755876 ], [ -1.3046167, 42.9756648 ], [ -1.3046084, 42.9756832 ], [ -1.3045819, 42.9758 ], [ -1.3045641, 42.9758742 ], [ -1.3045603, 42.9758948 ], [ -1.3045503, 42.9759575 ], [ -1.3045321, 42.9760072 ], [ -1.3045302, 42.9760832 ], [ -1.3045333, 42.9761197 ], [ -1.3045159, 42.9762331 ], [ -1.3045165, 42.9763345 ], [ -1.3045167, 42.9763706 ], [ -1.304513, 42.9764208 ], [ -1.304518, 42.9765011 ], [ -1.3045174, 42.976517 ], [ -1.304519, 42.9765862 ], [ -1.3045192, 42.9766575 ], [ -1.3045189, 42.9766778 ], [ -1.3045003, 42.9767512 ], [ -1.3045234, 42.9768049 ], [ -1.304545, 42.9768371 ], [ -1.3045591, 42.9768716 ], [ -1.3045859, 42.9769605 ], [ -1.3045884, 42.9770349 ], [ -1.3045978, 42.9771081 ], [ -1.3045991, 42.9771242 ], [ -1.3046041, 42.977242 ], [ -1.3046043, 42.9772786 ], [ -1.3045977, 42.9773524 ], [ -1.3045911, 42.9773873 ], [ -1.3045821, 42.9774765 ], [ -1.3045685, 42.9775269 ], [ -1.3045569, 42.9775811 ], [ -1.3045515, 42.9775982 ], [ -1.3045195, 42.9776672 ], [ -1.3045132, 42.9776863 ], [ -1.304487, 42.9777949 ], [ -1.3044924, 42.9778149 ], [ -1.3044955, 42.9779148 ], [ -1.3044952, 42.9779555 ], [ -1.3044994, 42.9779944 ], [ -1.3045193, 42.9781117 ], [ -1.3045357, 42.9781853 ], [ -1.3045479, 42.9782446 ], [ -1.3046043, 42.9783979 ], [ -1.3046136, 42.9784171 ], [ -1.3046784, 42.9785524 ], [ -1.3046962, 42.9785907 ], [ -1.3047221, 42.9786708 ], [ -1.3047419, 42.9787532 ], [ -1.3047432, 42.9787735 ], [ -1.3047586, 42.9788863 ], [ -1.3047602, 42.9789095 ], [ -1.3047612, 42.9789322 ], [ -1.3047795, 42.9791464 ], [ -1.3047783, 42.9791906 ], [ -1.304784, 42.9793003 ], [ -1.3047675, 42.9793746 ], [ -1.3047628, 42.9793694 ], [ -1.3047628, 42.9793694 ], [ -1.3047628, 42.9793694 ], [ -1.3047628, 42.9793694 ], [ -1.3047628, 42.9793694 ], [ -1.3047628, 42.9793694 ], [ -1.3047628, 42.9793694 ], [ -1.3047628, 42.9793694 ], [ -1.3047628, 42.9793694 ], [ -1.3047628, 42.9793694 ], [ -1.3047628, 42.9793694 ], [ -1.3047628, 42.9793694 ], [ -1.3047628, 42.9793694 ], [ -1.3047628, 42.9793694 ], [ -1.3047628, 42.9793694 ], [ -1.3047628, 42.9793694 ], [ -1.3047628, 42.9793694 ], [ -1.3047628, 42.9793694 ], [ -1.3047628, 42.9793694 ], [ -1.3047628, 42.9793694 ], [ -1.3047627, 42.9793692 ], [ -1.3047628, 42.9793694 ], [ -1.3047628, 42.9793694 ], [ -1.3047628, 42.9793694 ], [ -1.3047627, 42.9793699 ], [ -1.3047717, 42.9794087 ], [ -1.3047457, 42.9795171 ], [ -1.3046693, 42.9797196 ], [ -1.3046224, 42.9797892 ], [ -1.3046003, 42.9798239 ], [ -1.3045734, 42.9799004 ], [ -1.3045618, 42.9799425 ], [ -1.304443, 42.9802175 ], [ -1.3043778, 42.9804238 ], [ -1.3043675, 42.9804605 ], [ -1.3042536, 42.9806931 ], [ -1.3041795, 42.9808838 ], [ -1.304137, 42.9809596 ], [ -1.3041162, 42.9809989 ], [ -1.3040365, 42.9811923 ], [ -1.3040303, 42.9812345 ], [ -1.3040119, 42.9815433 ], [ -1.3039943, 42.9818386 ], [ -1.3039526, 42.982017 ], [ -1.3039158, 42.9821102 ], [ -1.3038993, 42.9821594 ], [ -1.3038564, 42.9822696 ], [ -1.3038322, 42.9823255 ], [ -1.3037989, 42.98238 ], [ -1.3037549, 42.9824367 ], [ -1.3037195, 42.982488 ], [ -1.3036838, 42.9825398 ], [ -1.3035555, 42.9826879 ], [ -1.3034087, 42.9828388 ], [ -1.3033653, 42.982873 ], [ -1.30333, 42.9828929 ], [ -1.3032096, 42.982989 ], [ -1.3031295, 42.983065 ], [ -1.3030435, 42.9831309 ], [ -1.3030094, 42.9831636 ], [ -1.3028861, 42.9833257 ], [ -1.3028591, 42.9833736 ], [ -1.3028278, 42.9834127 ], [ -1.3027318, 42.9835441 ], [ -1.3027004, 42.983591 ], [ -1.3026737, 42.9836419 ], [ -1.3026056, 42.9838047 ], [ -1.3025885, 42.9838547 ], [ -1.3025472, 42.9839544 ], [ -1.3025538, 42.9841116 ], [ -1.3025489, 42.9841577 ], [ -1.3025532, 42.9842644 ], [ -1.3025074, 42.9843637 ], [ -1.3025123, 42.9843918 ], [ -1.3025167, 42.9844736 ], [ -1.3025372, 42.9844881 ], [ -1.3025644, 42.9845579 ], [ -1.3026089, 42.9847082 ], [ -1.3026722, 42.9848319 ], [ -1.3026959, 42.9848966 ], [ -1.3027177, 42.984988 ], [ -1.3027498, 42.9851797 ], [ -1.3027662, 42.9853567 ], [ -1.3027809, 42.9854334 ], [ -1.3028236, 42.9856635 ], [ -1.3028254, 42.9857149 ], [ -1.3028431, 42.9859385 ], [ -1.3028431, 42.9859385 ], [ -1.3028854, 42.986062 ], [ -1.3029435, 42.9861831 ], [ -1.3029805, 42.98624 ], [ -1.3032134, 42.986531 ], [ -1.3032774, 42.9865867 ], [ -1.3033429, 42.9866486 ], [ -1.3033994, 42.9867189 ], [ -1.3034481, 42.986791 ], [ -1.3034943, 42.9868681 ], [ -1.3035813, 42.9870273 ], [ -1.3036598, 42.9871916 ], [ -1.303724, 42.9873495 ], [ -1.3037632, 42.9874102 ], [ -1.3037931, 42.9874634 ], [ -1.3038821, 42.9875563 ], [ -1.303934, 42.9875864 ], [ -1.3039655, 42.9876029 ], [ -1.3039767, 42.9876123 ], [ -1.3040674, 42.9876577 ], [ -1.3041152, 42.9876817 ], [ -1.3042404, 42.9877441 ], [ -1.3043074, 42.987781 ], [ -1.30438, 42.9878221 ], [ -1.3045239, 42.9879272 ], [ -1.3045767, 42.9879918 ], [ -1.3046294, 42.9880474 ], [ -1.3046959, 42.9880994 ], [ -1.304773, 42.9881619 ], [ -1.3048498, 42.9882224 ], [ -1.3049412, 42.9882742 ], [ -1.3050669, 42.9883899 ], [ -1.3051757, 42.9885001 ], [ -1.3052658, 42.988542 ], [ -1.3053559, 42.9885948 ], [ -1.3054247, 42.9886559 ], [ -1.3055509, 42.9887794 ], [ -1.3056266, 42.9888349 ], [ -1.3057775, 42.988941 ], [ -1.3058765, 42.9889736 ], [ -1.305978, 42.9889933 ], [ -1.30625, 42.9890838 ], [ -1.3063389, 42.9891041 ], [ -1.3065352, 42.9891114 ], [ -1.3067618, 42.9891546 ], [ -1.306884, 42.9891782 ], [ -1.3069988, 42.9892055 ], [ -1.3071223, 42.9892339 ], [ -1.3072451, 42.9892507 ], [ -1.3073581, 42.9892663 ], [ -1.3074769, 42.9892771 ], [ -1.3075857, 42.9892777 ], [ -1.307691, 42.9892613 ], [ -1.3078992, 42.9892596 ], [ -1.3080941, 42.9893196 ], [ -1.308191, 42.9893362 ], [ -1.3083526, 42.9893549 ], [ -1.3084882, 42.9893958 ], [ -1.308541, 42.9894149 ], [ -1.308657, 42.9894589 ], [ -1.3087388, 42.989475 ], [ -1.3088335, 42.9894903 ], [ -1.3089369, 42.9894988 ], [ -1.3090391, 42.9895126 ], [ -1.3091445, 42.9895321 ], [ -1.309241, 42.9895522 ], [ -1.3093483, 42.9895565 ], [ -1.3094592, 42.9895535 ], [ -1.3095798, 42.9895579 ], [ -1.3096947, 42.9895673 ], [ -1.3097955, 42.9895675 ], [ -1.3098838, 42.9895465 ], [ -1.3099734, 42.9895248 ], [ -1.3100679, 42.9895159 ], [ -1.3101631, 42.9895188 ], [ -1.3102693, 42.9895253 ], [ -1.3103765, 42.9895234 ], [ -1.3106893, 42.9894879 ], [ -1.3110146, 42.9894932 ], [ -1.3111982, 42.9895407 ], [ -1.3113521, 42.9896074 ], [ -1.3114865, 42.9896675 ], [ -1.3116203, 42.9897132 ], [ -1.3116823, 42.9897211 ], [ -1.3117434, 42.989729 ], [ -1.3117975, 42.9897377 ], [ -1.3118528, 42.9897458 ], [ -1.3120017, 42.9897968 ], [ -1.3121104, 42.9898345 ], [ -1.3121746, 42.9898443 ], [ -1.3122451, 42.9898486 ], [ -1.3123828, 42.9898573 ], [ -1.3125556, 42.9898428 ], [ -1.3126458, 42.9898501 ], [ -1.3127322, 42.9898456 ], [ -1.3128206, 42.9898242 ], [ -1.3129081, 42.9897956 ], [ -1.3130029, 42.9897645 ], [ -1.3131124, 42.9897226 ], [ -1.3132241, 42.9896752 ], [ -1.3133279, 42.9896208 ], [ -1.3135425, 42.9895374 ], [ -1.3136565, 42.9895282 ], [ -1.3138863, 42.9895204 ], [ -1.3140026, 42.9895269 ], [ -1.3141222, 42.9895477 ], [ -1.3145209, 42.9896777 ], [ -1.3146754, 42.9897733 ], [ -1.3147445, 42.9898215 ], [ -1.314821, 42.9898719 ], [ -1.3148991, 42.98992 ], [ -1.3149918, 42.9899589 ], [ -1.3150883, 42.9899911 ], [ -1.3151859, 42.9900234 ], [ -1.3152816, 42.9900525 ], [ -1.3153807, 42.990073 ], [ -1.3154887, 42.9900756 ], [ -1.3156019, 42.9900758 ], [ -1.3157149, 42.9900624 ], [ -1.3158278, 42.9900422 ], [ -1.315941, 42.9900268 ], [ -1.3160673, 42.9900249 ], [ -1.3163345, 42.9900245 ], [ -1.3166035, 42.9900075 ], [ -1.31673, 42.9900152 ], [ -1.3168584, 42.9900311 ], [ -1.3171159, 42.990071 ], [ -1.3172367, 42.990088 ], [ -1.3173566, 42.9901052 ], [ -1.3175938, 42.9901536 ], [ -1.3177043, 42.990158 ], [ -1.3178109, 42.9901569 ], [ -1.317912, 42.9901676 ], [ -1.3180126, 42.9901952 ], [ -1.318119, 42.9902163 ], [ -1.3182331, 42.9902284 ], [ -1.3183511, 42.990247 ], [ -1.3184636, 42.9902666 ], [ -1.3185785, 42.9902663 ], [ -1.3186931, 42.9902649 ], [ -1.3188125, 42.9902752 ], [ -1.3190221, 42.9903007 ], [ -1.3191191, 42.9902936 ], [ -1.3192059, 42.9902924 ], [ -1.3192772, 42.9903009 ], [ -1.3194702, 42.9903119 ], [ -1.3196454, 42.9903209 ], [ -1.3197047, 42.9903353 ], [ -1.3197667, 42.9903407 ], [ -1.3198992, 42.9903365 ], [ -1.3199622, 42.9903304 ], [ -1.3200884, 42.9903507 ], [ -1.3202062, 42.9903876 ], [ -1.3204055, 42.9903934 ], [ -1.3204678, 42.9904173 ], [ -1.3206085, 42.9904696 ], [ -1.3206904, 42.9904851 ], [ -1.3208599, 42.9905184 ], [ -1.3210502, 42.9905367 ], [ -1.3212479, 42.990535 ], [ -1.3213487, 42.9905245 ], [ -1.3214468, 42.9905053 ], [ -1.3216482, 42.9904843 ], [ -1.3217545, 42.9904769 ], [ -1.3218627, 42.9904629 ], [ -1.3219786, 42.9904496 ], [ -1.3221044, 42.9904348 ], [ -1.3222384, 42.9904187 ], [ -1.3223677, 42.9904009 ], [ -1.3224948, 42.9903696 ], [ -1.3226263, 42.9903339 ], [ -1.322758, 42.9903077 ], [ -1.3228992, 42.990289 ], [ -1.3230346, 42.9902774 ], [ -1.3231704, 42.9902702 ], [ -1.3234455, 42.9902761 ], [ -1.3240831, 42.9903512 ], [ -1.3243467, 42.9903717 ], [ -1.3246076, 42.9903916 ], [ -1.3248362, 42.9904255 ], [ -1.3250793, 42.9904534 ], [ -1.32521, 42.9904598 ], [ -1.3253339, 42.9904652 ], [ -1.3254638, 42.990464 ], [ -1.325579, 42.9904535 ], [ -1.3257019, 42.9904278 ], [ -1.3258166, 42.9904124 ], [ -1.3259249, 42.9903821 ], [ -1.3261068, 42.9902806 ], [ -1.3262891, 42.9901276 ], [ -1.3263303, 42.9900806 ], [ -1.3263927, 42.9900127 ], [ -1.3263824, 42.9899981 ], [ -1.3263632, 42.9900438 ], [ -1.3263539, 42.9900589 ], [ -1.326354, 42.990059 ], [ -1.326354, 42.990059 ], [ -1.326354, 42.990059 ], [ -1.3263551, 42.9900758 ], [ -1.3263551, 42.9900758 ], [ -1.3263551, 42.9900758 ], [ -1.3263551, 42.9900758 ], [ -1.3263551, 42.9900758 ], [ -1.3263551, 42.9900758 ], [ -1.3263551, 42.9900758 ], [ -1.3263551, 42.9900758 ], [ -1.3263551, 42.9900758 ], [ -1.3263551, 42.9900758 ], [ -1.3263551, 42.9900758 ], [ -1.3263551, 42.9900758 ], [ -1.3263551, 42.9900758 ], [ -1.3263551, 42.9900758 ], [ -1.3263551, 42.9900758 ], [ -1.3263531, 42.9900769 ], [ -1.3263551, 42.9900758 ], [ -1.3263551, 42.9900758 ], [ -1.3263551, 42.9900758 ], [ -1.3263551, 42.9900758 ], [ -1.3263551, 42.9900758 ], [ -1.3263551, 42.9900758 ], [ -1.3263551, 42.9900758 ], [ -1.3263551, 42.9900758 ], [ -1.3263551, 42.9900758 ], [ -1.3263551, 42.9900758 ], [ -1.3263551, 42.9900758 ], [ -1.3263551, 42.9900758 ], [ -1.3263551, 42.9900758 ], [ -1.3263551, 42.9900758 ], [ -1.3263551, 42.9900758 ], [ -1.3263551, 42.9900758 ], [ -1.3263551, 42.9900758 ], [ -1.3263551, 42.9900758 ], [ -1.3263551, 42.9900758 ], [ -1.3263551, 42.9900758 ], [ -1.3263551, 42.9900758 ], [ -1.3263551, 42.9900758 ], [ -1.3263551, 42.9900758 ], [ -1.3263551, 42.9900758 ], [ -1.3263825, 42.990008 ], [ -1.326446, 42.9899666 ], [ -1.3265127, 42.9899552 ], [ -1.3265272, 42.9899573 ], [ -1.3265337, 42.9899556 ], [ -1.3265378, 42.9899464 ], [ -1.3265466, 42.9899372 ], [ -1.3265815, 42.9899139 ], [ -1.3266613, 42.989919 ], [ -1.3268469, 42.9899599 ], [ -1.3269084, 42.9899768 ], [ -1.3269392, 42.9899822 ], [ -1.3269735, 42.9899813 ], [ -1.3270356, 42.9899844 ], [ -1.3270936, 42.9899723 ], [ -1.3271137, 42.989968 ], [ -1.3272888, 42.989926 ], [ -1.3273476, 42.9899085 ], [ -1.3274391, 42.9898718 ], [ -1.3275015, 42.9898524 ], [ -1.3277948, 42.9897979 ], [ -1.327965, 42.9897789 ], [ -1.3281575, 42.9897352 ], [ -1.3282846, 42.9896783 ], [ -1.3283489, 42.9896434 ], [ -1.328465, 42.989579 ], [ -1.3285233, 42.9895522 ], [ -1.3286425, 42.989524 ], [ -1.3286973, 42.9895177 ], [ -1.3291217, 42.9894684 ], [ -1.3291799, 42.9894499 ], [ -1.3293015, 42.9894072 ], [ -1.3295113, 42.9893388 ], [ -1.32966, 42.9892714 ], [ -1.3298149, 42.9891994 ], [ -1.3298946, 42.9891633 ], [ -1.3299677, 42.9891238 ], [ -1.3301086, 42.9890341 ], [ -1.3302256, 42.988922 ], [ -1.3304272, 42.9886443 ], [ -1.3306761, 42.9883717 ], [ -1.3307472, 42.9882867 ], [ -1.3307864, 42.9882463 ], [ -1.3308249, 42.9882071 ], [ -1.3309632, 42.9880964 ], [ -1.331011, 42.9880579 ], [ -1.33114, 42.9879447 ], [ -1.3311754, 42.9879086 ], [ -1.331235, 42.9878516 ], [ -1.3312847, 42.9878106 ], [ -1.3313049, 42.9878053 ], [ -1.3313302, 42.9878076 ], [ -1.3314456, 42.9878339 ], [ -1.3314955, 42.9878485 ], [ -1.3316437, 42.9878889 ], [ -1.3317104, 42.9878952 ], [ -1.3318855, 42.9879419 ], [ -1.3320727, 42.9879928 ], [ -1.332108, 42.988001 ], [ -1.3321426, 42.9880122 ], [ -1.3321778, 42.9880223 ], [ -1.3325623, 42.9881385 ], [ -1.3326602, 42.9881781 ], [ -1.3327251, 42.9882041 ], [ -1.3328306, 42.9882372 ], [ -1.3328909, 42.9882626 ], [ -1.3330156, 42.9883255 ], [ -1.3330475, 42.9883406 ], [ -1.3332154, 42.9884834 ], [ -1.3332469, 42.9886947 ], [ -1.3332788, 42.9887612 ], [ -1.3334686, 42.9889634 ], [ -1.3335171, 42.9890478 ], [ -1.3335034, 42.9890767 ], [ -1.3333455, 42.9893247 ], [ -1.3332029, 42.9895356 ], [ -1.3331592, 42.9895896 ] ] } }
]
}
